{"version": 0.6, "generator": "Overpass API 0.7.62.8 e802775f", "osm3s": {"timestamp_osm_base": "2025-08-19T19:05:00Z", "copyright": "The data included in this document is from www.openstreetmap.org. The data is made available under ODbL."}, "elements": [{"type": "node", "id": 31441422, "lat": 47.9987019, "lon": 7.8395673, "tags": {"amenity": "cafe", "check_date:opening_hours": "2023-07-20", "contact:email": "info@cafe-einstein.de", "contact:website": "https://www.cafe-einstein.de", "diet:vegetarian": "yes", "name": "Cafe Einstein", "opening_hours": "Mo-Sa 10:00-24:00; Su 00:00-01:00,10:00-24:00", "source:opening_hours": "website", "toilets:wheelchair": "yes", "wheelchair": "yes"}}, {"type": "node", "id": 31449381, "lat": 47.9964734, "lon": 7.8394651, "tags": {"addr:city": "Freiburg im Breisgau", "addr:housenumber": "15", "addr:postcode": "79106", "addr:street": "Wentzingerstra\u00dfe", "amenity": "cafe", "check_date": "2024-01-15", "contact:phone": "+49 761 61257024", "contact:website": "https://www.radstation-freiburg.de/cafe-hermann", "diet:vegan": "yes", "diet:vegetarian": "yes", "level": "2", "name": "Caf\u00e9 Hermann", "opening_hours": "Mo-Th 09:00-24:00, Su 10:00-22:00, Fr,Sa 09:00-01:00", "payment:american_express": "yes", "payment:apple_pay": "yes", "payment:cash": "yes", "payment:credit_cards": "yes", "payment:debit_cards": "yes", "payment:girocard": "yes", "payment:google_pay": "yes", "payment:mastercard": "yes", "payment:v_pay": "yes", "payment:visa": "yes", "phone": "+49 761 61257024", "reservation": "no", "smoking": "outside", "toilets": "yes", "toilets:access": "yes", "toilets:changing_table": "yes", "toilets:wheelchair": "yes", "website": "https://hermannfreiburg.de/", "wheelchair": "yes"}}, {"type": "node", "id": 31589525, "lat": 47.994569, "lon": 7.848258, "tags": {"addr:housenumber": "7", "addr:postcode": "79098", "addr:street": "Niemensstra\u00dfe", "alt_name": "UniCaf\u00e9", "amenity": "cafe", "check_date:opening_hours": "2018-09-20", "contact:facebook": "https://www.facebook.com/UC-Cafe-128453020515846/", "contact:phone": "+49 761 383355", "name": "UC Uni Caf\u00e9", "opening_hours": "Mo-Sa 08:00-24:00, Mo-Fr 00:00-01:00, Sa-Su 00:00-03:00, Su 10:00-24:00", "opening_hours:kitchen": "Mo-Sa 08:00-23:00, Su 09:00-23:00", "outdoor_seating": "pedestrian_zone", "source:opening_hours": "website", "toilets:wheelchair": "no", "wheelchair": "limited"}}, {"type": "node", "id": 31594319, "lat": 47.9958303, "lon": 7.8510518, "tags": {"addr:city": "Freiburg im Breisgau", "addr:housenumber": "179", "addr:postcode": "79098", "addr:street": "Kaiser-Joseph-Stra\u00dfe", "amenity": "cafe", "email": "info@edengalerie.com", "level": "0", "name": "Eden Galerie meets Bl\u00fcten Caf\u00e9", "old_name": "Paper & Tea", "opening_hours": "Mo-Sa 10:00-19:00; Su 10:00-15:00", "shop": "pottery", "website": "https://www.edengalerie.com/", "wheelchair": "yes"}}, {"type": "node", "id": 31680192, "lat": 47.9948108, "lon": 7.8487697, "tags": {"addr:city": "Freiburg im Breisgau", "addr:housenumber": "3", "addr:postcode": "79098", "addr:street": "Universit\u00e4tsstra\u00dfe", "amenity": "cafe", "contact:facebook": "https://www.facebook.com/Caf%C3%A9-Journal-Caf%C3%A9-Bistro-Bar-128968270461669/", "indoor_seating": "yes", "name": "Caf\u00e9 Journal", "opening_hours": "Mo,Tu,Su 08:00-19:00, We-Sa 08:00-24:00", "outdoor_seating": "yes", "toilets:wheelchair": "no", "website": "https://journal-freiburg.de/", "wheelchair": "limited"}}, {"type": "node", "id": 68611930, "lat": 47.9743071, "lon": 7.8268337, "tags": {"automatic_door": "no", "door": "hinged", "entrance": "yes", "level": "0", "note": "entrance for cafe", "wheelchair": "yes"}}, {"type": "node", "id": 248594098, "lat": 47.994335, "lon": 7.8485203, "tags": {"addr:housenumber": "3", "addr:postcode": "79098", "addr:street": "Niemensstra\u00dfe", "amenity": "cafe", "check_date": "2024-08-30", "cuisine": "ice_cream", "diet:gluten_free": "yes", "diet:vegan": "yes", "diet:vegetarian": "yes", "email": "info@incontro-gelato.de", "level": "0", "name": "Incontro", "opening_hours": "Mo-Sa 10:00-20:00; Su 11:00-20:00", "outdoor_seating": "yes", "phone": "+49 761 2025610", "takeaway": "yes", "toilets:wheelchair": "no", "website": "https://incontro-gelato.de", "wheelchair": "limited"}}, {"type": "node", "id": 248594109, "lat": 47.9904433, "lon": 7.8469149, "tags": {"addr:city": "Freiburg im Breisgau", "addr:housenumber": "1", "addr:postcode": "79098", "addr:street": "Schreiberstra\u00dfe", "amenity": "cafe", "brand": "Cafe Extrablatt", "brand:wikidata": "Q1025505", "breakfast:brunch": "Mo-Sa 09:00-12:00;Su,PH 09:00-14:00", "check_date": "2023-10-05", "contact:email": "freiburg@cafe-extrablatt.de", "contact:phone": "+49 761 76991490", "contact:website": "https://cafe-extrablatt.de/standorte/details/cafe-extrablatt-freiburg", "cuisine": "coffee_shop", "happy_hours": "Mo-Su 19:00+", "indoor_seating": "yes", "internet_access": "wlan", "name": "Cafe Extrablatt", "old_name": "Dreisam-Ufercafe", "opening_hours": "Mo-Su,PH 09:00-24:00", "outdoor_seating": "yes", "takeaway": "yes", "toilets:wheelchair": "yes", "wheelchair": "yes", "wheelchair:description": "Rampe, Treppenlifter, Behinderten-WC"}}, {"type": "node", "id": 248594114, "lat": 47.997176, "lon": 7.8438399, "tags": {"addr:city": "Freiburg im Breisgau", "addr:housenumber": "64", "addr:postcode": "79098", "addr:street": "Eisenbahnstra\u00dfe", "amenity": "cafe", "diet:vegetarian": "yes", "indoor_seating": "yes", "name": "Caf\u00e9 Melange", "opening_hours": "07:00-18:00; Sa 08:00-16:00", "outdoor_seating": "yes", "phone": "+49 761 2922255", "smoking": "outside", "wheelchair": "no"}}, {"type": "node", "id": 248594115, "lat": 47.9954728, "lon": 7.8451758, "tags": {"addr:city": "Freiburg im Breisgau", "addr:housenumber": "44", "addr:postcode": "79098", "addr:street": "Bertoldstra\u00dfe", "amenity": "cafe", "check_date": "2024-12-29", "contact:phone": "+49 761 2922939", "contact:website": "http://www.caffeportofino.it/", "cuisine": "ice_cream", "diet:halal": "no", "diet:kosher": "no", "diet:vegan": "no", "diet:vegetarian": "yes", "indoor_seating": "yes", "level": "0", "name": "Eiscafe Portofino", "opening_hours": "Mo-Su 00:00-01:00,09:00-24:00", "outdoor_seating": "yes", "source": "Homepage", "wheelchair": "limited"}}, {"type": "node", "id": 248594116, "lat": 47.995311, "lon": 7.8475326, "tags": {"addr:city": "Freiburg im Breisgau", "addr:housenumber": "19 a", "addr:postcode": "79098", "addr:street": "Bertoldstra\u00dfe", "air_conditioning": "no", "amenity": "cafe", "check_date:opening_hours": "2025-08-09", "contact:email": "kontakt@cafeschmidt.de", "contact:fax": "+49 761 2021927", "contact:phone": "+49 761 36967", "contact:website": "http://www.cafeschmidt.de", "diet:vegan": "no", "diet:vegetarian": "yes", "ice_cream": "yes", "indoor_seating": "yes", "name": "Caf\u00e9 Schmidt", "opening_hours": "Mo-Sa 09:00-18:00", "outdoor_seating": "yes", "smoking": "outside", "toilets:wheelchair": "no", "wheelchair": "limited"}}, {"type": "node", "id": 248594128, "lat": 47.9936875, "lon": 7.8491071, "tags": {"addr:city": "Freiburg im Breisgau", "addr:housenumber": "233", "addr:postcode": "79098", "addr:street": "Kaiser-Joseph-Stra\u00dfe", "amenity": "cafe", "changing_table": "no", "check_date": "2025-05-24", "check_date:currency:XBT": "2025-05-03", "check_date:diet:vegetarian": "2021-03-27", "currency:XBT": "yes", "description": "Caf\u00e9 and Patisserie", "diet:vegan": "yes", "diet:vegetarian": "yes", "indoor_seating": "yes", "internet_access": "wlan", "level": "0", "name": "Kolben-Kaffee-Akademie", "opening_hours": "Mo-Sa 07:30-18:00; Su 10:00-17:00", "outdoor_seating": "yes", "payment:lightning": "yes", "payment:lightning_contactless": "yes", "payment:onchain": "no", "phone": "+49 761 3870013", "self_service": "yes", "smoking": "no", "takeaway": "yes", "toilets": "yes", "toilets:access": "customers", "toilets:wheelchair": "no", "website": "https://www.kolbenkaffee-freiburg.de/", "wheelchair": "limited"}}, {"type": "node", "id": 248594132, "lat": 47.9960908, "lon": 7.8471961, "tags": {"addr:city": "Freiburg im Breisgau", "addr:housenumber": "48", "addr:postcode": "79098", "addr:street": "Rathausgasse", "amenity": "cafe", "check_date:opening_hours": "2023-09-18", "contact:website": "http://www.schwarzes-kloster.com", "cuisine": "cake;soup;salad;bistro", "name": "Caf\u00e9 Schwarzes Kloster", "opening_hours": "Mo-Fr 08:30-18:30; Sa 08:30-18:00; Su, PH off", "opening_hours:url": "https://www.lapiazza-freiburg.de/pizzeria-la-piazza/%C3%B6ffnungszeiten/", "operator": "Guastella Gastronomie GmbH", "outdoor_seating": "patio", "phone": "+49 761 39622", "source:opening_hours": "https://www.schwarzes-kloster.com/", "toilets:wheelchair": "no", "wheelchair": "limited"}}, {"type": "node", "id": 248594138, "lat": 47.992204, "lon": 7.848103, "tags": {"addr:city": "Freiburg im Breisgau", "addr:housenumber": "7", "addr:postcode": "79098", "addr:street": "Gartenstra\u00dfe", "amenity": "cafe", "contact:instagram": "marmell_de", "cuisine": "breakfast;burger", "email": "info@marmell.de", "name": "Marmell", "opening_hours": "Mo-Su 09:00-17:00", "operator": "Cem Azizoglu", "outdoor_seating": "yes", "phone": "+4915206647748", "website": "https://www.marmell.de"}}, {"type": "node", "id": 248594140, "lat": 47.993041, "lon": 7.8430934, "tags": {"addr:city": "Freiburg im Breisgau", "addr:housenumber": "42", "addr:postcode": "79098", "addr:street": "Moltkestra\u00dfe", "air_conditioning": "no", "alt_name": "Caf\u00e9 Moltke", "amenity": "cafe", "diet:vegan": "yes", "diet:vegetarian": "yes", "indoor_seating": "yes", "name": "Wilhelm Moltke", "opening_hours": "Mo-Fr 08:00-18:00; Sa 10:00-18:00; Su 10:00-18:00", "outdoor_seating": "yes", "payment:credit_cards": "no", "payment:debit_cards": "no", "smoking": "outside", "wheelchair": "no"}}, {"type": "node", "id": 248594141, "lat": 47.994141, "lon": 7.8479701, "tags": {"addr:housenumber": "7", "addr:postcode": "79098", "addr:street": "L\u00f6wenstra\u00dfe", "amenity": "cafe", "name": "Auditorium Minimum", "opening_hours": "Mo-Th 10:00-01:00, Fr 10:00-02:00, Sa 11:00-02:00, Su 13:00-00:00", "phone": "+4976124961", "wheelchair": "limited"}}, {"type": "node", "id": 248594159, "lat": 47.9945745, "lon": 7.8434855, "tags": {"addr:city": "Freiburg im Breisgau", "addr:housenumber": "19", "addr:postcode": "79098", "addr:street": "Moltkestra\u00dfe", "amenity": "cafe", "cuisine": "sandwich;breakfast;bread", "diet:vegan": "yes", "diet:vegetarian": "yes", "email": "auszeitfreiburg@gmail.com", "indoor_seating": "yes", "internet_access": "yes", "internet_access:fee": "no", "name": "Caf\u00e9 Auszeit", "opening_hours": "Mo-Sa 07:00-18:00", "outdoor_seating": "yes", "payment:credit_cards": "yes", "payment:debit_cards": "yes", "phone": "+49 761 24264", "smoking": "outside", "website": "https://cafeauszeit.com/", "wheelchair": "no"}}, {"type": "node", "id": 248594162, "lat": 47.994371, "lon": 7.8411489, "tags": {"entrance": "yes"}}, {"type": "node", "id": 248594174, "lat": 47.9942018, "lon": 7.8473856, "tags": {"addr:postcode": "79098", "amenity": "cafe", "diet:vegan": "yes", "diet:vegetarian": "yes", "indoor_seating": "yes", "name": "Caf\u00e9 Senkrecht", "opening_hours": "Mo-Fr 08:45-16:30", "outdoor_seating": "yes", "payment:cash": "yes", "payment:credit_cards": "no", "payment:debit_cards": "limited", "smoking": "outside", "wheelchair": "yes"}}, {"type": "node", "id": 266168474, "lat": 48.0222499, "lon": 7.8578127, "tags": {"addr:housenumber": "336", "addr:street": "Z\u00e4hringer Stra\u00dfe", "amenity": "cafe", "contact:email": "eisnart@yahoo.de", "contact:phone": "+49 761 52311", "contact:website": "http://www.eis-nart.de/", "cuisine": "ice_cream", "name": "Eiscafe Nart", "opening_hours": "Feb-Apr 09:00-21:00; May-Sep 09:00-22:30", "wheelchair": "limited"}}, {"type": "node", "id": 267542389, "lat": 47.9993858, "lon": 7.7922831, "tags": {"amenity": "cafe", "check_date": "2024-03-11", "cuisine": "cake", "diet:vegan": "no", "diet:vegetarian": "yes", "email": "cafe@kiosk.rieselfeld.org", "name": "Cafe im Glashaus", "opening_hours": "Mo-Tu,Sa-Su off; We-Fr 14:30-17:30", "toilets:wheelchair": "yes", "website": "https://kiosk.rieselfeld.org/glashaus/cafe-im-glashaus/", "wheelchair": "yes"}}, {"type": "node", "id": 268881753, "lat": 47.9980011, "lon": 7.8422892, "tags": {"amenity": "cafe", "level": "0", "name": "Lio's"}}, {"type": "node", "id": 288353883, "lat": 47.9956094, "lon": 7.8443592, "tags": {"addr:city": "Freiburg im Breisgau", "addr:housenumber": "48", "addr:postcode": "79098", "addr:street": "Bertoldstra\u00dfe", "amenity": "cafe", "check_date:opening_hours": "2024-02-16", "contact:email": "info@bertolds.de", "contact:facebook": "https://www.facebook.com/people/Bertolds-Caf%C3%A9-Bar/100092707346146/", "contact:phone": "+49 761 38493619", "level": "0", "name": "Bertolds Caf\u00e9 & Bar", "opening_hours": "Mo-Th 08:00-22:00; Fr 08:00-24:00; Sa 00:00-01:00, 08:00-24:00; Su 00:00-01:00, 11:00-18:00", "outdoor_seating": "yes", "source:opening_hours": "entrance", "toilets:wheelchair": "no", "wheelchair": "yes", "wheelchair:description": "Die Toilette ist im Untergeschoss und nur \u00fcber eine Treppe erreichbar."}}, {"type": "node", "id": 293524181, "lat": 48.0469787, "lon": 7.8024132, "tags": {"addr:city": "Freiburg im Breisgau", "addr:housenumber": "2", "addr:postcode": "79108", "addr:street": "Fuhrmannsgasse", "addr:suburb": "Hochdorf", "amenity": "cafe", "cuisine": "ice_cream;coffee_shop", "instagram": "https://www.instagram.com/reel/DKRI6xFKEvu/", "name": "Crazy Gelato", "old_name": "Volksbank", "opening_hours": "Mo-Fr 12:00-20:00,Sa-Su 12:00-21:00", "outdoor_seating": "yes", "start_date": "2025-06-01"}}, {"type": "node", "id": 299302347, "lat": 47.9938889, "lon": 7.8287856, "tags": {"addr:city": "Freiburg im Breisgau", "addr:housenumber": "84", "addr:postcode": "79115", "addr:street": "Haslacher Stra\u00dfe", "amenity": "cafe", "contact:phone": "+49 761 4764589", "contact:website": "http://www.der-backladen.de", "name": "Der Backladen", "opening_hours": "Mo-Fr 06:00-20:00; Sa 06:00-16:00; Su,PH 07:00-16:00", "organic": "yes", "shop": "convenience", "wheelchair": "limited"}}, {"type": "node", "id": 303825606, "lat": 48.0038786, "lon": 7.8546018, "tags": {"amenity": "cafe", "check_date": "2025-06-16", "check_date:opening_hours": "2025-05-03", "contact:email": "info@cafedanz.de", "contact:facebook": "https://www.facebook.com/profile.php?id=61568109136515", "contact:instagram": "https://www.instagram.com/cafe_danz", "contact:linktree": "https://linktr.ee/cafedanz", "contact:phone": "+49 761 89821540", "contact:website": "https://cafedanz.de", "cuisine": "burger;sandwich", "description": "Bistro & Winebar", "diet:vegetarian": "yes", "name": "Caf\u00e9 Danz", "opening_hours": "We-Th 17:00-24:00; Fr-Sa 17:00-01:00; Su 10:00-18:00", "opening_hours:kitchen": "We-Sa 18:00-21:30; Su 10:00-14:00", "outdoor_seating": "yes", "smoking": "no", "source:opening_hours": "entrance", "wheelchair": "limited"}}, {"type": "node", "id": 303836542, "lat": 47.9972724, "lon": 7.857247, "tags": {"addr:housenumber": "1", "addr:postcode": "79098", "addr:street": "Im Stadtgarten", "amenity": "cafe", "contact:facebook": "https://www.facebook.com/cafemarcel", "diet:vegan": "yes", "diet:vegetarian": "yes", "email": "info@cafemarcel.de", "fixme": "Laut Maps4BW Hausnummer 2", "indoor_seating": "no", "name": "Caf\u00e9 Marcel", "opening_hours": "Mo-Fr 10:00-18:00; Sa, Su 09:00-18:00", "outdoor_seating": "yes", "payment:credit_cards": "yes", "payment:debit_cards": "yes", "self_service": "yes", "source:shop": "survey", "website": "https://www.cafemarcel.de", "wheelchair": "yes", "wheelchair:description": "keine Toilette"}}, {"type": "node", "id": 313081330, "lat": 48.0153838, "lon": 7.8228974, "tags": {"addr:city": "Freiburg im Breisgau", "addr:housenumber": "60", "addr:postcode": "79110", "addr:street": "Els\u00e4sser Stra\u00dfe", "amenity": "cafe", "check_date": "2024-10-26", "check_date:diet:vegetarian": "2024-10-26", "contact:phone": "+49 761 89759596", "cuisine": "ice_cream", "diet:vegetarian": "yes", "name": "Eis Sensazioni", "opening_hours": "Mo-Su 08:00-22:30", "wheelchair": "no"}}, {"type": "node", "id": 315969055, "lat": 48.0224604, "lon": 7.8586024, "tags": {"amenity": "cafe", "check_date": "2025-03-13", "contact:phone": "+49 761 1378544", "contact:website": "http://www.baeckerei-reiss-beck.de/", "diet:vegetarian": "yes", "indoor_seating": "yes", "name": "Cafe Rei\u00df-Beck", "opening_hours": "Mo-Fr 06:30-19:00; Sa 06:30-18:00; Su 07:30-18:00", "outdoor_seating": "yes", "shop": "bakery", "wheelchair": "yes", "wheelchair:description": "Toiletten im UH - nur \u00fcber Treppen erreichbar"}}, {"type": "node", "id": 348295237, "lat": 47.9816091, "lon": 7.8032906, "tags": {"addr:city": "Freiburg im Breisgau", "addr:housenumber": "35", "addr:postcode": "79111", "addr:street": "Blumenstra\u00dfe", "addr:suburb": "Sankt Georgen", "amenity": "cafe", "check_date:covid19": "2021-03-11", "indoor_seating": "yes", "level": "0", "name": "Konditorei Hess", "opening_hours": "Tu-Sa 07:00-18:00; Su 08:00-18:00", "outdoor_seating": "yes", "shop": "bakery", "takeaway:covid19": "only", "wheelchair": "no"}}, {"type": "node", "id": 358484329, "lat": 47.9950295, "lon": 7.8430975, "tags": {"addr:housenumber": "9", "addr:postcode": "79098", "addr:street": "Sedanstra\u00dfe", "air_conditioning": "no", "amenity": "cafe", "diet:vegan": "yes", "diet:vegetarian": "yes", "internet_access": "wlan", "name": "Sedan", "opening_hours": "Mo-Fr 07:29-18:00; Sa 08:30-18:00", "outdoor_seating": "yes", "phone": "+49 179 6810726", "smoking": "no", "takeaway": "yes", "wheelchair": "no"}}, {"type": "node", "id": 367146906, "lat": 47.997242, "lon": 7.8525777, "tags": {"addr:postcode": "79098", "amenity": "cafe", "brand": "Starbucks", "brand:wikidata": "Q37158", "brand:wikipedia": "en:Starbucks", "contact:phone": "+49 761 1379028", "contact:website": "http://www.starbucks.de", "cuisine": "coffee_shop", "diet:vegan": "yes", "diet:vegetarian": "yes", "indoor_seating": "yes", "level": "0", "name": "Starbucks", "official_name": "Starbucks Coffee", "opening_hours": "Mo-Fr 07:00-20:30; Sa 08:00-21:00; Su 10:00-19:00; PH 10:00-19:00", "outdoor_seating": "yes", "self_service": "yes", "smoking": "no", "takeaway": "yes", "toilets:wheelchair": "no", "wheelchair": "yes"}}, {"type": "node", "id": 431566258, "lat": 47.9817757, "lon": 7.8945182, "tags": {"amenity": "cafe", "check_date:opening_hours": "2024-11-27", "diet:vegan": "yes", "diet:vegetarian": "yes", "indoor_seating": "yes", "name": "Heitzmann", "opening_hours": "Mo-Fr 06:00-19:00, Sa,Su,PH 07:00-18:00", "operator": "B\u00e4ckerei Heitzmann", "outdoor_seating": "yes", "shop": "bakery", "wheelchair": "yes"}}, {"type": "node", "id": 519656897, "lat": 48.0233515, "lon": 7.8586493, "tags": {"amenity": "cafe", "name": "Cafe Merigio", "outdoor_seating": "yes", "phone": "+49 (0)761 384 78 40", "website": "http://www.merigio.de/", "wheelchair": "limited", "wheelchair:description": "Toiletten nicht Rollstuhlgerecht."}}, {"type": "node", "id": 521313067, "lat": 47.9968717, "lon": 7.8347783, "tags": {"addr:postcode": "79115", "amenity": "cafe", "cuisine": "ice_cream", "diet:vegan": "yes", "diet:vegetarian": "yes", "level": "0", "name": "Gelatogioia", "opening_hours": "Mo-Su 09:00-22:00", "operator": "Diego Parla", "phone": "+49 761 42998336", "strapline": "artigianale italiano", "website": "https://gelatogioia.de/", "wheelchair": "no"}}, {"type": "node", "id": 574313511, "lat": 48.0016549, "lon": 7.8425217, "tags": {"addr:street": "Hugstetter Stra\u00dfe", "amenity": "cafe", "name": "St\u00fchli's Espresso Bar", "note": "Das Caf\u00e9 ist Feb. 2020 nicht vorhanden"}}, {"type": "node", "id": 588496675, "lat": 48.0102717, "lon": 7.8319427, "tags": {"amenity": "cafe", "contact:phone": "+49 761 4565005", "contact:website": "http://www.baeckerei-reiss-beck.de/", "diet:vegetarian": "yes", "name": "Rei\u00df-Beck", "opening_hours": "Mo-Fr 07:00-19:00; Sa 07:00-13:00; Su,PH 08:00-13:00", "shop": "bakery", "wheelchair": "yes"}}, {"type": "node", "id": 679144363, "lat": 47.9925622, "lon": 7.8524741, "tags": {"addr:postcode": "79098", "amenity": "cafe", "contact:facebook": "caffedagianni", "contact:instagram": "caffedagianni", "name": "Caff\u00e8 da Gianni", "opening_hours": "Mo-Sa 09:00-17:00", "start_date": "2019-04", "website": "https://caffe-da-gianni.de/"}}, {"type": "node", "id": 679144571, "lat": 47.9939923, "lon": 7.8521474, "tags": {"addr:city": "Freiburg im Breisgau", "addr:housenumber": "28", "addr:postcode": "79098", "addr:street": "Salzstra\u00dfe", "amenity": "cafe", "diet:vegetarian": "yes", "indoor_seating": "yes", "name": "manna - Die Spezerei", "opening_hours": "Mo-Th 09:00-19:00; PH,Su 10:00-18:00; Fr,Sa 09:00-20:00", "outdoor_seating": "yes", "phone": "+49 761 2909664", "self_service": "yes", "smoking": "outside", "toilets:wheelchair": "no", "website": "https://www.manna-die-spezerei.de/", "wheelchair": "limited", "wheelchair:description": "Caf\u00e9 ohne Treppe zu erreichen. Toilette im Untergeschoss, kein Aufzug."}}, {"type": "node", "id": 693646744, "lat": 48.0077658, "lon": 7.8580498, "tags": {"alt_name": "Cafeteria in der Hauptstra\u00dfe", "amenity": "cafe", "check_date:opening_hours": "2023-11-21", "contact:website": "https://www.uniklinik-freiburg.de/gastronomie/fuer-besucher.html", "diet:vegetarian": "yes", "name": "Cafeteria am Teich", "opening_hours": "Mo-Fr 11:00-14:15; Sa,Su off", "opening_hours:lunch": "Mo-Fr 11:15-13:45; Sa,Su off", "operator": "Universit\u00e4tsklinikum Freiburg", "source:opening_hours": "entrance", "wheelchair": "yes"}}, {"type": "node", "id": 698508991, "lat": 47.9876568, "lon": 7.8737471}, {"type": "node", "id": 698551338, "lat": 47.9900335, "lon": 7.8716493, "tags": {"amenity": "cafe", "level": "0", "name": "Caf\u00e9teria", "opening_hours": "Mo-Th,Su 13:30-17:00"}}, {"type": "node", "id": 725177749, "lat": 47.9788956, "lon": 7.8106402, "tags": {"addr:city": "Freiburg im Breisgau", "addr:housenumber": "26", "addr:postcode": "79111", "addr:street": "Andreas-Hofer-Stra\u00dfe", "amenity": "cafe", "cuisine": "ice_cream", "name": "Solino", "opening_hours": "Mar-Sep PH,Mo-Su 10:00-20:00; Oct-Feb PH,Mo-Su 12:00-18:00", "wheelchair": "limited"}}, {"type": "node", "id": 847498119, "lat": 48.0187463, "lon": 7.8423197, "tags": {"addr:city": "Freiburg im Breisgau", "addr:housenumber": "13", "addr:postcode": "79108", "addr:street": "Engesserstra\u00dfe", "amenity": "cafe", "check_date:opening_hours": "2020-01-25", "contact:phone": "+49 761 76612846", "contact:website": "https://baeckerei-reiss-beck.de/Fachgeschaefte", "name": "Rei\u00df-Beck", "opening_hours": "Mo-Sa 05:00-19:30; Su,PH 06:00-18:30", "operator": "Rei\u00df Beck GmbH & Co. KG", "outdoor_seating": "streetside", "shop": "bakery", "source:opening_hours": "website", "wheelchair": "yes"}}, {"type": "node", "id": 925932429, "lat": 47.9917439, "lon": 7.8621679, "tags": {"amenity": "cafe", "check_date": "2025-08-17", "contact:email": "Kartaeuser@beckesepp.de", "contact:phone": "+49 761 29280538", "contact:website": "https://www.beckesepp.de/standorte/freiburg-kartaeuserstrasse-baeckerei-cafe", "cuisine": "bakery;breakfast", "diet:vegan": "yes", "diet:vegetarian": "yes", "internet_access": "wlan", "name": "Beckesepp", "opening_hours": "Mo-Sa 07:00-18:00; PH,Su 08:00-18:00", "shop": "bakery", "smoking": "no", "wheelchair": "yes"}}, {"type": "node", "id": 999388015, "lat": 47.996098, "lon": 7.8525829, "tags": {"addr:housenumber": "11", "addr:postcode": "79098", "addr:street": "M\u00fcnsterplatz", "amenity": "cafe", "check_date:opening_hours": "2022-04-12", "cuisine": "ice_cream", "diet:vegan": "yes", "diet:vegetarian": "yes", "email": "kontakt@sams-freiburg.de", "indoor_seating": "yes", "name": "Sams Caf\u00e9", "opening_hours": "Mo-Sa 08:00-19:00; Su 08:00-18:00", "outdoor_seating": "yes", "phone": "+49 761 21720630", "toilets:wheelchair": "no", "website": "https://www.sams-freiburg.de/", "wheelchair": "limited"}}, {"type": "node", "id": 1002041689, "lat": 47.9933764, "lon": 7.8405357}, {"type": "node", "id": 1002983428, "lat": 47.9933271, "lon": 7.8404255, "tags": {"entrance": "yes"}}, {"type": "node", "id": 1003035889, "lat": 47.9933363, "lon": 7.840375}, {"type": "node", "id": 1003035897, "lat": 47.9933059, "lon": 7.8405073}, {"type": "node", "id": 1142015537, "lat": 47.9815575, "lon": 7.8816581}, {"type": "node", "id": 1142015541, "lat": 47.9814561, "lon": 7.8814077}, {"type": "node", "id": 1142015557, "lat": 47.9814958, "lon": 7.8814125}, {"type": "node", "id": 1142015567, "lat": 47.9814803, "lon": 7.8816982}, {"type": "node", "id": 1154579932, "lat": 47.9876244, "lon": 7.8693121, "tags": {"addr:housenumber": "46a", "addr:street": "Sch\u00fctzenallee", "amenity": "cafe", "cuisine": "ice_cream", "level": "0", "name": "Eiscafe Etna"}}, {"type": "node", "id": 1175010242, "lat": 47.9919743, "lon": 7.8165762, "tags": {"amenity": "cafe", "internet_access": "yes", "name": "Internet Cafe Call Shop"}}, {"type": "node", "id": 1177096965, "lat": 47.9953613, "lon": 7.8516248, "tags": {"addr:postcode": "79098", "amenity": "cafe", "diet:vegetarian": "yes", "name": "Eis Cafe Lazzarin", "wheelchair": "limited"}}, {"type": "node", "id": 1203781115, "lat": 47.994371, "lon": 7.841066}, {"type": "node", "id": 1203781137, "lat": 47.9943319, "lon": 7.8410643}, {"type": "node", "id": 1203781343, "lat": 47.9933984, "lon": 7.840445}, {"type": "node", "id": 1203781838, "lat": 47.9944381, "lon": 7.841367}, {"type": "node", "id": 1203781923, "lat": 47.9943769, "lon": 7.8412062}, {"type": "node", "id": 1240322269, "lat": 47.9982071, "lon": 7.850236, "tags": {"amenity": "cafe", "check_date": "2025-08-05", "check_date:opening_hours": "2025-08-05", "indoor_seating": "yes", "name": "Moment", "opening_hours": "Tu-Fr 08:00-18:00; Sa,Su 09:00-18:00", "wheelchair": "limited"}}, {"type": "node", "id": 1244906119, "lat": 47.9979512, "lon": 7.8371945, "tags": {"amenity": "cafe", "check_date": "2024-01-27", "dog": "no", "level": "0", "name": "platzer's", "opening_hours": "Mo-Fr 06:00-18:00, Sa 07:00-17:00, Su 08:00-17:00", "outdoor_seating": "yes", "shop": "bakery", "takeaway": "yes", "toilets": "yes", "toilets:access": "yes", "toilets:changing_table": "no", "toilets:wheelchair": "no", "wheelchair": "no", "wheelchair:description": "zwei Stufen am Eingang"}}, {"type": "node", "id": 1245630968, "lat": 47.9943372, "lon": 7.8411863}, {"type": "node", "id": 1245631007, "lat": 47.9944004, "lon": 7.8413947}, {"type": "node", "id": 1245631014, "lat": 47.9943738, "lon": 7.8413226}, {"type": "node", "id": 1245631141, "lat": 47.9943427, "lon": 7.8412464}, {"type": "node", "id": 1248821408, "lat": 47.9933189, "lon": 7.8405122}, {"type": "node", "id": 1255289328, "lat": 47.9958531, "lon": 7.8493555, "tags": {"addr:city": "Freiburg im Breisgau", "addr:housenumber": "12", "addr:postcode": "79098", "addr:street": "Rathausgasse", "amenity": "cafe", "cuisine": "ice_cream", "indoor_seating": "yes", "name": "Eiscafe Lazzarin", "outdoor_seating": "yes", "phone": "+49 761 35319", "toilets:wheelchair": "no", "wheelchair": "yes"}}, {"type": "node", "id": 1267448938, "lat": 47.9742884, "lon": 7.826823}, {"type": "node", "id": 1267449275, "lat": 47.9743502, "lon": 7.8265811}, {"type": "node", "id": 1273419692, "lat": 47.9981624, "lon": 7.7931197, "tags": {"addr:city": "Freiburg im Breisgau", "addr:housenumber": "33", "addr:postcode": "79111", "addr:street": "Rieselfeldallee", "amenity": "cafe", "check_date": "2023-03-18", "contact:email": "Kaffeezeit.rieselfeld@web.de", "contact:phone": "+49 761 4539444", "cuisine": "german", "diet:vegetarian": "yes", "internet_access": "wlan", "name": "Caf\u00e9zeit", "name:de": "Caf\u00e9zeit", "name:en": "Caf\u00e9time", "opening_hours": "Mo-Tu off; We-Th,Sa-Su,PH 09:00-18:00; Fr 09:00-20:00", "opening_hours:kitchen": "We-Su 10:00-17:00", "toilets": "yes", "toilets:wheelchair": "yes", "website": "https://www.kaffeezeit-rieselfeld.de/", "wheelchair": "yes", "wheelchair:description": "festangebaute Rampe vor Eingang, Toiletten im Untergeschoss nur \u00fcber Treppe erreichbar"}}, {"type": "node", "id": 1273423924, "lat": 47.9982286, "lon": 7.8425309, "tags": {"amenity": "cafe", "brand": "Starbucks", "brand:wikidata": "Q37158", "brand:wikipedia": "en:Starbucks", "cuisine": "coffee_shop", "diet:vegan": "yes", "diet:vegetarian": "yes", "indoor_seating": "yes", "level": "0", "name": "Starbucks", "official_name": "Starbucks Coffee", "opening_hours": "Mo-Th 06:00-20:30, Fr 06:00-21:00, Sa 07:00-21:00; Su 08:00-21:30; Dec 24 06:00-14:00; Jan 1,Dec 25-26 08:00-19:00; Dec 31 07:00-18:30; Jan 6 08:00-20:30", "outdoor_seating": "yes", "self_service": "yes", "smoking": "no", "takeaway": "yes", "wheelchair": "yes"}}, {"type": "node", "id": 1280377702, "lat": 48.0058955, "lon": 7.8356982, "tags": {"amenity": "cafe", "check_date": "2024-05-27", "cuisine": "bistro", "diet:vegetarian": "yes", "name": "Caf\u00e9 am Ring", "opening_hours": "Mo-Fr 07:00-18:00; Sa-Su,PH 11:00-17:00", "operator": "Universit\u00e4tsklinikum Freiburg", "self_service": "yes", "wheelchair": "yes"}}, {"type": "node", "id": 1350294474, "lat": 47.9917673, "lon": 7.8163288, "tags": {"addr:city": "Freiburg im Breisgau", "addr:housenumber": "6", "addr:postcode": "79115", "addr:street": "Markgrafenstra\u00dfe", "amenity": "cafe", "contact:email": "info@schoepflins-backhaus.de", "contact:fax": "+49 761 4762017", "contact:phone": "+49 761 494077", "contact:website": "https://www.schoepflin-backhaus.de", "diet:vegetarian": "yes", "name": "Sch\u00f6pflin's Backhaus", "opening_hours": "Mo-Fr 06:00-18:00; Sa 06:00-16:00; Su 09:00-17:00", "wheelchair": "yes"}}, {"type": "node", "id": 1422251507, "lat": 47.9945249, "lon": 7.8502089, "tags": {"amenity": "cafe", "check_date": "2024-01-21", "cuisine": "ice_cream", "name": "Eiscaf\u00e9 Mona Lisa", "note": "opening_hours -> off during winter: values for 2011/12", "opening_hours": "Mo-Su 10:00-24:00; Oct 31-Jan 28 off", "phone": "+49 761 38097941", "wheelchair": "limited"}}, {"type": "node", "id": 1428952017, "lat": 47.9933292, "lon": 7.8499738, "tags": {"addr:housenumber": "12", "addr:street": "Gerberau", "amenity": "cafe", "bar": "yes", "check_date": "2024-01-07", "check_date:opening_hours": "2022-04-19", "contact:email": "info@aucontraire.de", "contact:facebook": "https://www.facebook.com/aucontrairefreiburg/", "contact:phone": "+49 761 51461581", "contact:website": "https://www.aucontraire.de", "cuisine": "sandwich;cake;coffee_shop;cocktail", "diet:gluten_free": "yes", "diet:vegan": "only", "diet:vegetarian": "only", "indoor_seating": "yes", "internet_access": "wlan", "level": "0", "name": "au contraire", "opening_hours": "Su, PH 14:00-20:00; Fr, Sa 10:00-24:00; Mo-Th 10:00-22:00", "operator": "Booze Panda GmbH", "outdoor_seating": "yes", "smoking": "no", "source:opening_hours": "website", "start_date": "2020-04", "takeaway": "yes", "toilets": "yes", "toilets:wheelchair": "no", "wheelchair": "limited"}}, {"type": "node", "id": 1514557203, "lat": 47.9877005, "lon": 7.8737482}, {"type": "node", "id": 1522469699, "lat": 47.981514, "lon": 7.8899604, "tags": {"amenity": "cafe", "description": "Dezember 2021: Samstags geschlossen!", "indoor_seating": "yes", "internet_access:type": "wlan", "name": "Berg\u00e4cker Caf\u00e9", "opening_hours": "Mo-Sa 09:00-18:00; Su 10:00-18:00", "outdoor_seating": "yes", "toilets:wheelchair": "no", "website": "https://www.bergaecker.de/", "wheelchair": "yes"}}, {"type": "node", "id": 1588235146, "lat": 47.9847904, "lon": 7.8536368, "tags": {"addr:city": "Freiburg im Breisgau", "addr:housenumber": "40", "addr:postcode": "79102", "addr:street": "Urachstra\u00dfe", "amenity": "cafe", "check_date": "2025-02-10", "indoor_seating": "yes", "name": "Barbette im alten Wiehrebahnhof", "opening_hours": "Mo off; Tu 18:00-24:00; We 13:00-24:00; Th-Fr 16:00-24:00; Sa 09:00-24:00; Su 12:00-20:00", "outdoor_seating": "yes", "smoking": "outside", "toilets:wheelchair": "yes", "website": "https://www.huber-freiburg.com/barbette", "wheelchair": "limited", "wheelchair:description:de": "Eingang zu Caf\u00e9 und Toilette \u00fcber Rampe auf der anderen Seite als das Caf\u00e9 ist. T\u00fcr muss aufgeschlossen werden. Self Service f\u00fcr Rollstuhlfahrer nur eingeschr\u00e4nkt nutzbar."}}, {"type": "node", "id": 1594647026, "lat": 48.0004186, "lon": 7.715799, "tags": {"access:covid19": "yes", "addr:city": "Freiburg im Breisgau", "addr:country": "DE", "addr:housenumber": "1", "addr:postcode": "79112", "addr:street": "Altgasse", "addr:suburb": "Opfingen", "amenity": "cafe", "cuisine": "ice_cream", "name": "Eiscaf\u00e9 Giogelati", "outdoor_seating": "yes", "takeaway:covid19": "yes", "wheelchair": "limited"}}, {"type": "node", "id": 1595554075, "lat": 47.9942994, "lon": 7.854814, "tags": {"addr:city": "Freiburg im Breisgau", "addr:housenumber": "21", "addr:postcode": "79098", "addr:street": "Konviktstra\u00dfe", "amenity": "cafe", "changing_table": "yes", "check_date": "2025-03-15", "check_date:diet:vegan": "2025-03-15", "contact:email": "info@jolie.cafe", "cuisine": "coffee_shop", "delivery": "no", "diet:vegan": "no", "diet:vegetarian": "yes", "indoor_seating": "yes", "internet_access": "no", "level": "0;1", "name": "Caf\u00e9 Jolie", "opening_hours": "Mo-Sa 09:00-18:00; Su 10:00-17:00", "operator": "Tom's Gastro GmbH", "outdoor_seating": "yes", "source:opening_hours": "entrance", "takeaway": "no", "toilets": "yes", "toilets:access": "customers", "toilets:wheelchair": "no", "website": "https://jolie.cafe/", "wheelchair": "yes"}}, {"type": "node", "id": 1595595550, "lat": 48.0068261, "lon": 7.863536, "tags": {"addr:city": "Freiburg im Breisgau", "addr:country": "DE", "addr:housenumber": "66", "addr:postcode": "79104", "addr:street": "Hauptstra\u00dfe", "addr:suburb": "Herdern", "amenity": "cafe", "name": "Rei\u00df Beck", "opening_hours": "Mo-Fr 06:30-18:30; Sa 06:30-17:00; Su,PH 07:30-17:00"}}, {"type": "node", "id": 1643223526, "lat": 47.9738254, "lon": 7.8007428, "tags": {"amenity": "cafe", "name": "Info-Cafe und Mittagstisch", "opening_hours": "Sa-Su 10:00-18:00", "wheelchair": "limited"}}, {"type": "node", "id": 1650543556, "lat": 47.9812344, "lon": 7.8963091, "tags": {"addr:city": "Freiburg im Breisgau", "addr:housenumber": "2", "addr:postcode": "79117", "addr:street": "H\u00f6llentalstra\u00dfe", "amenity": "cafe", "description": "Br\u00f6tchen/Brote zum selber belegen, hei\u00dfe und kalte Getr\u00e4nke zu g\u00fcnstigen Preisen", "internet_access": "yes", "name": "KuCa (Kulturcaf\u00e9)", "opening_hours": "\"im Semester meistens Mo.-Fr. zwischen 11:00-18:00 Uhr\"", "smoking": "outside", "website": "https://kuca-bleibt.jimdo.com/", "wheelchair": "no"}}, {"type": "node", "id": 1658834273, "lat": 47.9930862, "lon": 7.8485573, "tags": {"addr:city": "Freiburg im Breisgau", "addr:housenumber": "260", "addr:postcode": "79098", "addr:street": "Kaiser-Joseph-Stra\u00dfe", "amenity": "cafe", "contact:facebook": "https://www.facebook.com/Fili-Caf%C3%A9-1274724369238503", "diet:vegetarian": "yes", "name": "Fili Caf\u00e9", "opening_hours": "Mo-Sa 09:00-22:00+; Su 10:00-20:00+", "outdoor_seating": "yes", "phone": "+49 761 1375588", "smoking": "outside", "toilets:wheelchair": "no", "website": "https://fili.cafe", "wheelchair": "yes"}}, {"type": "node", "id": 1671252200, "lat": 48.0010317, "lon": 7.8640605}, {"type": "node", "id": 1671252210, "lat": 48.0012418, "lon": 7.8641953}, {"type": "node", "id": 1671252227, "lat": 48.0010583, "lon": 7.8639938}, {"type": "node", "id": 1671252230, "lat": 48.0011966, "lon": 7.8641546}, {"type": "node", "id": 1671252231, "lat": 48.0011781, "lon": 7.8643475}, {"type": "node", "id": 1671252288, "lat": 48.0012073, "lon": 7.8641264}, {"type": "node", "id": 1856054959, "lat": 47.9789489, "lon": 7.8028158}, {"type": "node", "id": 1856054960, "lat": 47.9789468, "lon": 7.8029658}, {"type": "node", "id": 1856054987, "lat": 47.9791352, "lon": 7.8029689}, {"type": "node", "id": 1856054996, "lat": 47.9791914, "lon": 7.8028149}, {"type": "node", "id": 1856054997, "lat": 47.979191, "lon": 7.8029675}, {"type": "node", "id": 1871766686, "lat": 47.9849957, "lon": 7.8211927, "tags": {"addr:city": "Freiburg im Breisgau", "addr:housenumber": "109", "addr:postcode": "79115", "addr:street": "Basler Stra\u00dfe", "amenity": "cafe", "diet:vegetarian": "yes", "name": "die kaiserin", "opening_hours": "Mo-Sa 06:00-19:00; Su,PH 07:30-19:00", "opening_hours:covid19": "Mo-Fr 06:00-18:30; Sa 06:00-18:00; Su,PH 07:30-18:00", "phone": "+49 761 88893539", "website": "http://www.diekaiserin.de", "wheelchair": "yes"}}, {"type": "node", "id": 1930770100, "lat": 47.993504, "lon": 7.8499132, "tags": {"amenity": "cafe", "level": "0", "name": "Confiserie Rafael Mutter", "opening_hours": "Mo-Sa 10:00-18:00", "phone": "+49 761 292714 1", "website": "https://www.confiserie-rafael-mutter.de/", "wheelchair": "no"}}, {"type": "node", "id": 1999059245, "lat": 47.9848489, "lon": 7.8943599, "tags": {"addr:city": "Freiburg im Breisgau", "addr:housenumber": "18", "addr:postcode": "79117", "addr:street": "Heinrich-Heine-Stra\u00dfe", "amenity": "cafe", "indoor_seating": "yes", "name": "Ambrosia", "opening_hours": "Mo, We-Fr 09:00-17:00; Sa, Su 08:00-17:00", "outdoor_seating": "yes", "smoking": "outside", "website": "https://www.cafe-ambrosia.de/", "wheelchair": "yes"}}, {"type": "node", "id": 1999070993, "lat": 47.9863718, "lon": 7.8854855, "tags": {"amenity": "cafe", "cuisine": "cake", "diet:vegan": "yes", "diet:vegetarian": "yes", "name": "bis dato", "opening_hours": "Mo off;Tu,We,Su 9:00-18:00;Th-Sa 9:00-22:00", "outdoor_seating": "yes", "smoking": "outside", "wheelchair": "no"}}, {"type": "node", "id": 2023736202, "lat": 47.9742973, "lon": 7.8267881, "tags": {"door": "yes", "entrance": "yes", "level": "0", "note": "entrance for cafe", "wheelchair": "yes"}}, {"type": "node", "id": 2023736208, "lat": 47.9743357, "lon": 7.82685}, {"type": "node", "id": 2023736210, "lat": 47.974371, "lon": 7.8267119}, {"type": "node", "id": 2023736215, "lat": 47.974376, "lon": 7.8265959, "tags": {"door": "yes", "entrance": "yes", "level": "0", "note": "entrance for cafe", "wheelchair": "yes"}}, {"type": "node", "id": 2023736222, "lat": 47.9744146, "lon": 7.8266179}, {"type": "node", "id": 2185068813, "lat": 47.9945986, "lon": 7.8538384, "tags": {"addr:housenumber": "44", "addr:postcode": "79098", "addr:street": "Herrenstra\u00dfe", "amenity": "cafe", "cuisine": "coffee_shop", "description": "Stehcafe", "food": "no", "indoor_seating": "yes", "level": "0", "name": "Strass Cafe", "opening_hours": "Mo-Fr 09:00-18:00; Sa 09:00-16:00", "outdoor_seating": "yes", "self_service": "yes", "toilets:wheelchair": "no", "wheelchair": "yes"}}, {"type": "node", "id": 2292518476, "lat": 48.0139349, "lon": 7.8252626, "tags": {"addr:city": "Freiburg im Breisgau", "addr:housenumber": "42", "addr:postcode": "79110", "addr:street": "Els\u00e4sser Stra\u00dfe", "amenity": "cafe", "contact:email": "info@baeckerei-heitzmann.de", "contact:phone": "+49 761 89759379", "contact:website": "http://www.baeckerei-heitzmann.de/", "diet:vegan": "no", "diet:vegetarian": "yes", "indoor_seating": "yes", "name": "B\u00e4ckerei Heitzmann", "opening_hours": "Mo-Fr 06:00-18:30; Sa 06:00-17:30; Su 07:30-18:00", "outdoor_seating": "yes", "wheelchair": "yes"}}, {"type": "node", "id": 2295317022, "lat": 48.0048915, "lon": 7.8548402, "tags": {"amenity": "cafe", "brand": "Kaisers Gute Backstube", "brand:wikidata": "Q15116031", "check_date": "2018-07-10", "check_date:opening_hours": "2022-10-04", "diet:vegan": "yes", "diet:vegetarian": "yes", "lunch": "yes", "name": "Kaisers Gute Backstube", "opening_hours": "Mo-Fr 06:00-18:30; Sa 06:00-18:00; Su 08:00-18:00", "phone": "+49 761 21772960", "shop": "bakery", "smoking": "no", "website": "https://www.kaisers-backstube.de/", "wheelchair": "no"}}, {"type": "node", "id": 2297473801, "lat": 48.0047566, "lon": 7.8570386, "tags": {"amenity": "cafe", "check_date:opening_hours": "2022-10-02", "name": "Norso", "opening_hours": "Tu-Fr 09:30-17:30; Sa 09:30-17:30", "operator": "Martin Strub, Marius Strub", "outdoor_seating": "yes", "source:opening_hours": "entrance", "start_date": "2021-07", "wheelchair": "no"}}, {"type": "node", "id": 2299003160, "lat": 47.9945565, "lon": 7.852588, "tags": {"addr:postcode": "79098", "amenity": "cafe", "cuisine": "juice", "description": "Stehcafe f\u00fcr Frucht- und Gem\u00fcses\u00e4fte", "diet:vegetarian": "only", "indoor_seating": "yes", "name": "Saftl\u00e4dele", "opening_hours": "Mo-Fr 09:00-18:00, Su 09:00-17:00", "outdoor_seating": "yes", "source": "survey", "website": "http://www.saftl\u00e4dele.de", "wheelchair": "limited"}}, {"type": "node", "id": 2328666227, "lat": 47.9983431, "lon": 7.8549574, "tags": {"addr:city": "Freiburg im Breisgau", "addr:country": "DE", "addr:housenumber": "5", "addr:postcode": "79104", "addr:street": "Karlstra\u00dfe", "amenity": "cafe", "check_date:opening_hours": "2018-08-21", "description": "Feinkostladen und Stehcafe", "name": "terragusto", "opening_hours": "Mo-Sa 09:30-14:30", "shop": "deli", "source:opening_hours": "website", "website": "http://www.terragusto.de/"}}, {"type": "node", "id": 2335743798, "lat": 48.0010048, "lon": 7.8641642}, {"type": "node", "id": 2357131674, "lat": 47.9875261, "lon": 7.8508389, "tags": {"addr:city": "Freiburg", "addr:housenumber": "17", "addr:postcode": "79102", "addr:street": "Brombergstra\u00dfe", "amenity": "cafe", "diet:vegan": "no", "diet:vegetarian": "yes", "level": "0", "name": "Caff\u00e9 Bicicletta", "opening_hours": "Tu-Fr 08:45-18:00; Sa 10:00-16:00; PH off", "source": "survey", "start_date": "2013-06-22", "website": "https://caffe-bicicletta.com", "wheelchair": "no"}}, {"type": "node", "id": 2357696946, "lat": 48.0045526, "lon": 7.8573409, "tags": {"amenity": "cafe", "check_date:opening_hours": "2023-12-23", "contact:email": "hallo@tante-emma-freiburg.de", "contact:facebook": "https://www.facebook.com/tanteemmafreiburg", "contact:instagram": "https://www.instagram.com/tante_emma_freiburg/", "contact:phone": "+49 761 28527799", "contact:website": "https://tante-emma-freiburg.de/", "name": "Tante Emma", "opening_hours": "Mo-Fr 09:00-18:00", "shop": "interior_decoration", "source:opening_hours": "entrance; website", "strapline": "Kaffee & sch\u00f6ne Dinge", "wheelchair": "no"}}, {"type": "node", "id": 2376149437, "lat": 47.974388, "lon": 7.8267216}, {"type": "node", "id": 2402787110, "lat": 48.0033929, "lon": 7.8533539, "tags": {"amenity": "cafe", "check_date:opening_hours": "2016-01-09", "name": "Hofcaf\u00e9", "opening_hours": "Mo-Th 09:00-14:30; Fr 09:00-14:00", "opening_hours:url": "https://www.swfr.de/essen-trinken/mensen-cafes/hofcafe/", "operator": "Studentenwerk Freiburg", "source:opening_hours": "website", "website": "https://www.swfr.de/essen-trinken/mensen-cafes/hofcafe/"}}, {"type": "node", "id": 2500247174, "lat": 47.9876576, "lon": 7.8736712}, {"type": "node", "id": 2500247190, "lat": 47.9877013, "lon": 7.8736723}, {"type": "node", "id": 2507746635, "lat": 47.9911657, "lon": 7.8167749, "tags": {"amenity": "cafe", "cuisine": "ice_cream", "level": "0", "name": "Cream Garden", "opening_hours": "11:00-22:00"}}, {"type": "node", "id": 2521121976, "lat": 48.0075915, "lon": 7.8383541, "tags": {"access": "employees", "amenity": "cafe", "check_date": "2024-04-05", "name": "Caf\u00e9 am Eck", "opening_hours": "24/7", "outdoor_seating": "no", "self_service": "yes", "wheelchair": "yes"}}, {"type": "node", "id": 2545781182, "lat": 48.0069382, "lon": 7.8385252, "tags": {"amenity": "cafe", "check_date:opening_hours": "2023-12-07", "contact:website": "https://www.uniklinik-freiburg.de/gastronomie/fuer-besucher.html", "cuisine": "bistro", "name": "Bistro am Lorenzring", "opening_hours": "Mo-Fr 07:30-17:00; Sa,Su,PH 11:00-17:00", "operator": "Universit\u00e4tsklinikum Freiburg", "payment:cash": "yes", "payment:debit_cards": "yes", "payment:girocard": "yes", "self_service": "yes", "source:opening_hours": "entrance", "takeaway": "yes", "wheelchair": "yes"}}, {"type": "node", "id": 2570803877, "lat": 47.9966352, "lon": 7.8542878, "tags": {"amenity": "cafe", "check_date": "2023-05-11", "diet:vegan": "no", "diet:vegetarian": "yes", "indoor_seating": "yes", "min_age": "18", "name": "Cafe Instanbul Royal", "opening_hours": "PH,Mo-Su 08:00-02:00", "outdoor_seating": "yes", "smoking": "yes", "start_date": "2014-04-12", "website": "http://www.cafeistanbulroyal.de"}}, {"type": "node", "id": 2581344959, "lat": 47.9945035, "lon": 7.8525634, "tags": {"amenity": "cafe", "name": "Sarang", "source": "survey"}}, {"type": "node", "id": 2620871432, "lat": 47.9956301, "lon": 7.8375193, "tags": {"addr:city": "Freiburg im Breisgau", "addr:housenumber": "70", "addr:postcode": "79106", "addr:street": "Klarastra\u00dfe", "amenity": "cafe", "diet:vegetarian": "yes", "name": "JC", "opening_hours": "Mo-Fr 10:00-18:00; Sa 10:00-16:00"}}, {"type": "node", "id": 2707501971, "lat": 47.9721912, "lon": 7.8430071, "tags": {"addr:city": "Freiburg im Breisgau", "addr:housenumber": "6", "addr:postcode": "79100", "addr:street": "Wonnhaldestra\u00dfe", "amenity": "cafe", "check_date:opening_hours": "2023-08-29", "cuisine": "cake;coffee_shop", "level": "0", "name": "WaldHaus-Cafe", "opening_hours": "PH,Su 12:00-17:00", "website": "https://www.waldhaus-freiburg.de/kontakt-und-besuch/cafe", "wheelchair": "yes"}}, {"type": "node", "id": 2945628557, "lat": 48.051585, "lon": 7.8019972, "tags": {"amenity": "cafe", "name": "Heitzmann", "opening_hours": "Mo-Fr 06:00-18:30; Sa 06:00-13:00; Su 07:00-17:30", "shop": "bakery"}}, {"type": "node", "id": 2949915555, "lat": 47.9943339, "lon": 7.8411104}, {"type": "node", "id": 2955005899, "lat": 48.0010094, "lon": 7.8641212}, {"type": "node", "id": 2955005902, "lat": 48.0010105, "lon": 7.8644484}, {"type": "node", "id": 2955005903, "lat": 48.0010175, "lon": 7.8641342}, {"type": "node", "id": 2955005905, "lat": 48.0010198, "lon": 7.864091}, {"type": "node", "id": 2955005906, "lat": 48.0010379, "lon": 7.8640899}, {"type": "node", "id": 2955005909, "lat": 48.0010499, "lon": 7.8643512}, {"type": "node", "id": 2955005912, "lat": 48.0010544, "lon": 7.8643548}, {"type": "node", "id": 2955005913, "lat": 48.0010631, "lon": 7.8644951}, {"type": "node", "id": 2955005916, "lat": 48.0010724, "lon": 7.8644715}, {"type": "node", "id": 2955005919, "lat": 48.0010885, "lon": 7.8644858}, {"type": "node", "id": 2955005920, "lat": 48.0010966, "lon": 7.8642476}, {"type": "node", "id": 2955005922, "lat": 48.0011156, "lon": 7.8644149}, {"type": "node", "id": 2955005923, "lat": 48.0011209, "lon": 7.8644215}, {"type": "node", "id": 2955005925, "lat": 48.0011587, "lon": 7.86433}, {"type": "node", "id": 2975242735, "lat": 47.9814635, "lon": 7.8812718}, {"type": "node", "id": 2975242738, "lat": 47.9815055, "lon": 7.8812331}, {"type": "node", "id": 2975242742, "lat": 47.9815548, "lon": 7.8817072}, {"type": "node", "id": 2975242743, "lat": 47.9815602, "lon": 7.8816078}, {"type": "node", "id": 2975242745, "lat": 47.9815614, "lon": 7.8815853}, {"type": "node", "id": 2975242746, "lat": 47.9815642, "lon": 7.881534}, {"type": "node", "id": 2975242747, "lat": 47.9815795, "lon": 7.8816608}, {"type": "node", "id": 2975242748, "lat": 47.98158, "lon": 7.8812421}, {"type": "node", "id": 2975242749, "lat": 47.9815822, "lon": 7.8816104}, {"type": "node", "id": 2975242750, "lat": 47.9815842, "lon": 7.881588}, {"type": "node", "id": 2975242751, "lat": 47.981587, "lon": 7.8815368}, {"type": "node", "id": 2998298946, "lat": 47.9973111, "lon": 7.8393972, "tags": {"addr:city": "Freiburg im Breisgau", "addr:housenumber": "46", "addr:postcode": "79106", "addr:street": "Wentzingerstra\u00dfe", "amenity": "cafe", "check_date": "2025-02-10", "check_date:opening_hours": "2023-08-31", "diet:gluten_free": "yes", "diet:vegan": "yes", "diet:vegetarian": "yes", "email": "info@huber-freiburg.com", "name": "Caf\u00e9 Huber", "opening_hours": "Tu-Sa 09:00-18:00", "opening_hours:url": "http://www.huber-freiburg.com/welcome/", "phone": "+49 761 61024145", "smoking": "no", "source:opening_hours": "website", "website": "https://www.huber-freiburg.com/", "wheelchair": "no"}}, {"type": "node", "id": 3089854249, "lat": 47.9969481, "lon": 7.8515228, "tags": {"addr:housenumber": "7", "addr:postcode": "79098", "addr:street": "Schiffstra\u00dfe", "amenity": "cafe", "check_date": "2025-01-09", "cuisine": "ice_cream", "level": "0", "name": "Eis-Cafe Venezia", "opening_hours": "Mo-Fr 09:00-19:00; Sa 09:00-18:00", "outdoor_seating": "yes", "phone": "+49 761 33518", "toilets:access": "yes", "toilets:changing_table": "no", "toilets:wheelchair": "no", "website": "https://www.schwarzwald-city.de/geschaefte/eis-venezia", "wheelchair": "yes"}}, {"type": "node", "id": 3161995861, "lat": 47.9933681, "lon": 7.8491597, "tags": {"amenity": "cafe", "check_date:opening_hours": "2025-08-10", "diet:vegan": "yes", "diet:vegetarian": "yes", "indoor_seating": "yes", "level": "0", "name": "Gmeiner", "opening_hours": "Mo-Fr 09:30-18:30; Sa 09:00-18:30; Su 10:00-18:00; PH off", "outdoor_seating": "yes", "shop": "confectionery", "toilets:wheelchair": "yes", "website": "https://www.chocolatier.de/kh_freiburg.php", "wheelchair": "yes"}}, {"type": "node", "id": 3175607975, "lat": 47.9947508, "lon": 7.8507674, "tags": {"addr:housenumber": "3", "addr:postcode": "79098", "addr:street": "Salzstra\u00dfe", "amenity": "cafe", "check_date": "2025-01-09", "cuisine": "coffee_shop", "name": "Nostimo Coffee", "source": "survey"}}, {"type": "node", "id": 3196685690, "lat": 47.9880305, "lon": 7.8459436, "tags": {"access:covid19": "yes", "amenity": "cafe", "cuisine": "cake", "delivery:covid19": "yes", "indoor_seating": "yes", "name": "Elephant Beans", "opening_hours": "Mo-Fr 10:00-18:00; Sa 10:00-15:00", "opening_hours:covid19": "Mo-Fr 10:00-14:00; Sa 10:00-13:00", "outdoor_seating": "yes", "phone": "+4976142960190", "shop": "coffee", "source": "http://www.elephantbeans.de/", "website": "http://www.elephantbeans.de/"}}, {"type": "node", "id": 3269734516, "lat": 47.9940406, "lon": 7.8503753, "tags": {"amenity": "cafe", "brand": "Panda PanPan", "capacity": "4", "check_date:opening_hours": "2024-11-21", "cuisine": "waffle", "name": "Panda PanPan", "opening_hours": "Mo-Sa 11:30-18:30", "payment:cash": "yes", "payment:mastercard": "yes", "payment:visa": "yes", "smoking": "no", "takeaway": "yes", "wheelchair": "yes"}}, {"type": "node", "id": 3294304062, "lat": 48.0232495, "lon": 7.8583574, "tags": {"addr:housenumber": "348", "addr:street": "Z\u00e4hringer Stra\u00dfe", "amenity": "cafe", "name": "Z\u00e4hringer Treff Cafeteria", "wheelchair": "yes"}}, {"type": "node", "id": 3436131035, "lat": 48.0054251, "lon": 7.8376249, "tags": {"amenity": "cafe", "check_date:opening_hours": "2023-11-15", "contact:website": "https://www.uniklinik-freiburg.de/gastronomie/fuer-besucher.html", "cuisine": "sandwich", "diet:vegetarian": "yes", "internet_access": "no", "name": "Kiosk Frauenklinik", "opening_hours": "Mo-Fr 09:00-11:00,11:30-15:30; Sa,Su,PH 14:00-17:00", "operator": "Universit\u00e4tsklinikum Freiburg", "outdoor_seating": "terrace", "smoking": "isolated", "source:opening_hours": "entrance"}}, {"type": "node", "id": 3452171467, "lat": 47.9777515, "lon": 7.8246236, "tags": {"addr:housenumber": "22", "addr:postcode": "79115", "addr:street": "Wiesentalstra\u00dfe", "amenity": "cafe", "changing_table": "yes", "check_date:opening_hours": "2025-05-24", "cuisine": "coffee_shop", "diet:vegan": "yes", "diet:vegetarian": "yes", "highchair": "yes", "indoor_seating": "yes", "internet_access": "wlan", "level": "0", "name": "5 Senses Coffee", "name:de": "5 senses", "opening_hours": "Mo-Fr 08:00-18:00; Sa,Su,PH 09:00-18:00", "opening_hours:url": "http://www.downtown-coffee-company.com/", "outdoor_seating": "yes", "source:opening_hours": "website", "website": "https://5senses.coffee/", "wheelchair": "yes"}}, {"type": "node", "id": 3525435109, "lat": 47.994077, "lon": 7.8536981, "tags": {"addr:postcode": "79098", "amenity": "cafe", "check_date:opening_hours": "2023-09-23", "diet:vegetarian": "yes", "name": "Sonnensaft", "opening_hours:signed": "no", "shop": "greengrocer", "smoking": "no"}}, {"type": "node", "id": 3635883763, "lat": 47.9916669, "lon": 7.8547228, "tags": {"addr:housenumber": "2", "addr:street": "Kart\u00e4userstra\u00dfe", "amenity": "cafe", "cuisine": "italian", "diet:vegan": "yes", "diet:vegetarian": "yes", "level": "0", "name": "Caf\u00e9 Ruef", "opening_hours": "Tu-Th 18:00-01:00, Fr-Sa 18:00-03:00", "phone": "+4917622852028", "smoking": "outside", "website": "https://ruef-naherholung.de/", "wheelchair": "no"}}, {"type": "node", "id": 3874986757, "lat": 47.9913191, "lon": 7.8485955, "tags": {"addr:postcode": "79098", "amenity": "cafe", "check_date:opening_hours": "2024-01-27", "diet:vegetarian": "yes", "name": "Chocolaterie", "opening_hours": "Mo-Fr 09:30-18:30; Sa 09:30-17:00", "source:opening_hours": "entrance", "wheelchair": "limited"}}, {"type": "node", "id": 3903774968, "lat": 47.994118, "lon": 7.8493533, "tags": {"amenity": "cafe", "check_date:opening_hours": "2024-03-07", "diet:vegan": "yes", "diet:vegetarian": "yes", "internet_access": "wlan", "name": "Rei\u00df-Beck Stadtcafe", "opening_hours": "Mo-Fr 07:00-19:00; Sa 08:00-19:00; Su 08:00-18:00", "payment:credit_cards": "yes", "payment:debit_cards": "yes", "phone": "+49 761 32570", "shop": "bakery", "smoking": "no", "website": "https://www.baeckerei-reiss-beck.de/", "wheelchair": "yes"}}, {"type": "node", "id": 3913744214, "lat": 47.9940401, "lon": 7.8509704, "tags": {"addr:postcode": "79098", "amenity": "cafe", "level": "0", "name": "Gr\u00fcnwalder Caf\u00e9", "outdoor_seating": "yes"}}, {"type": "node", "id": 3923659158, "lat": 47.9969147, "lon": 7.8495596, "tags": {"addr:housenumber": "1-3", "addr:postcode": "79098", "addr:street": "Gauchstra\u00dfe", "amenity": "cafe", "contact:facebook": "https://www.facebook.com/Fili-Caf%C3%A9-1274724369238503/", "diet:vegetarian": "yes", "name": "Fili Caf\u00e9", "opening_hours": "Mo-Fr 08:00-18:00; Sa 09:00-18:00", "smoking": "outside", "source:opening_hours": "facebook", "wheelchair": "yes"}}, {"type": "node", "id": 3924372719, "lat": 47.9946, "lon": 7.8450491, "tags": {"addr:city": "Freiburg im Breisgau", "addr:housenumber": "2", "addr:postcode": "79098", "addr:street": "Platz der Universit\u00e4t", "air_conditioning": "yes", "amenity": "cafe", "diet:vegan": "yes", "diet:vegetarian": "yes", "fax": "+49 761 2101-303", "indoor_seating": "yes", "level": "0", "name": "Caf\u00e9 Libresso", "opening_hours": "Mo-Fr 08:00-18:00; Sa 10:00-17:00", "outdoor_seating": "seasonal", "payment:cash": "yes", "payment:credit_cards": "no", "payment:debit_cards": "limited", "phone": "+49 761 2101-200", "self_service": "yes", "smoking": "outside", "source": "survey", "toilets:wheelchair": "yes", "website": "https://www.swfr.de/essen/mensen-cafes-speiseplaene/freiburg/cafe-libresso/", "wheelchair": "yes"}}, {"type": "node", "id": 3927785505, "lat": 47.9959804, "lon": 7.8519336, "tags": {"addr:postcode": "79098", "amenity": "cafe", "check_date": "2025-04-07", "check_date:opening_hours": "2025-04-07", "diet:vegan": "yes", "diet:vegetarian": "yes", "level": "0", "name": "Breuninger Confiserie", "opening_hours": "Mo-Sa 09:00-20:00", "source": "survey", "website": "https://www.e-breuninger.de/de/breuninger-confiserie/", "wheelchair": "yes"}}, {"type": "node", "id": 3927785506, "lat": 47.9942304, "lon": 7.8499236, "tags": {"addr:housenumber": "1", "addr:street": "Gr\u00fcnw\u00e4lderstra\u00dfe", "amenity": "cafe", "check_date": "2024-09-21", "clothes": "women", "contact:email": "info@sweetdunya.de", "contact:phone": "+4976188875960", "cuisine": "turkish;arab", "name": "sweet dunya SUESSE WELT", "opening_hours": "Mo-Sa 11:30-20:30; So 11:30-18:00", "operator": "Ibrahim Halil Dagdelen", "website": "https://sweetdunya.de/", "wheelchair": "no"}}, {"type": "node", "id": 3927785510, "lat": 47.9939314, "lon": 7.8535164, "tags": {"amenity": "cafe", "indoor_seating": "yes", "name": "La Parisienne Macaronnerie", "opening_hours": "Mo 11:00-17:00; Tu-Sa 09:00-18:00; Su 10:00-17:00", "outdoor_seating": "yes", "source": "survey"}}, {"type": "node", "id": 3938212538, "lat": 47.9930654, "lon": 7.8532008, "tags": {"addr:postcode": "79098", "addr:street": "Gerberau", "amenity": "cafe", "check_date:opening_hours": "2023-04-11", "name": "Cafe Krokodil", "opening_hours": "Tu-Sa 10:00-17:00", "source": "survey", "source:opening_hours": "entrance", "wheelchair": "limited"}}, {"type": "node", "id": 3938214376, "lat": 47.9940745, "lon": 7.8532027, "tags": {"addr:postcode": "79098", "amenity": "cafe", "indoor_seating": "yes", "name": "Caf\u00e9 Linden", "opening_hours": "Mo-Sa 09:00-18:00; Su off", "outdoor_seating": "yes", "source": "survey"}}, {"type": "node", "id": 3945030975, "lat": 47.9927518, "lon": 7.8478412, "tags": {"amenity": "cafe", "diet:vegetarian": "yes", "internet_access": "wlan", "internet_access:fee": "no", "level": "0", "name": "Elli\u2019s Caf\u00e9", "opening_hours": "Mo,Tu 08:00-17:00; Sa 11:00-20:00; We-Fr 08:00-20:00; Su 11:00-16:00", "outdoor_seating": "yes", "website": "https://www.elliscafe.de/", "wheelchair": "limited"}}, {"type": "node", "id": 3945085528, "lat": 47.9938531, "lon": 7.8408982, "tags": {"addr:city": "Freiburg im Breisgau", "addr:housenumber": "2", "addr:postcode": "79098", "addr:street": "Adlerstra\u00dfe", "air_conditioning": "no", "amenity": "cafe", "changing_table": "no", "check_date": "2025-02-10", "email": "interym@riseup.net", "indoor_seating": "yes", "internet_access": "wlan", "internet_access:fee": "no", "internet_access:ssid": "freiburg.freifunk.net", "level": "0", "name": "Kyosk Interym", "opening_hours": "Tu-Th 17:00-22:00; Fr-Sa 17:00-23:00; Su 13:15-17:00", "operator": "Interym n.e.v.", "outdoor_seating": "yes", "owner": "Freiburger Stadtbau GmbH (FSB)", "payment:cards": "no", "payment:cash": "yes", "payment:credit_cards": "no", "payment:debit_cards": "no", "phone": "+49 761 2023911", "reservation": "no", "smoking": "yes", "source": "survey", "takeaway": "yes", "toilets": "yes", "toilets:menstrual_products": "yes", "toilets:wheelchair": "no", "website": "https://kyo.sk/", "wheelchair": "limited"}}, {"type": "node", "id": 3952858171, "lat": 47.9981624, "lon": 7.8495338, "tags": {"addr:city": "Freiburg im Breisgau", "addr:housenumber": "38", "addr:postcode": "79098", "addr:street": "Friedrichring", "air_conditioning": "no", "amenity": "cafe", "bar": "yes", "cuisine": "breakfast;cake;coffee_shop", "diet:vegan": "yes", "diet:vegetarian": "yes", "level": "0", "name": "B\u00e4chle", "opening_hours": "Mo,We 09:00-17:00; Th-Su 09:00-18:00", "outdoor_seating": "yes", "payment:cash": "yes", "payment:contactless": "yes", "payment:credit_cards": "yes", "payment:mastercard": "yes", "phone": "+4915734452086", "smoking": "outside", "source": "survey", "website": "https://www.baechlefreiburg.de/", "wheelchair": "no"}}, {"type": "node", "id": 3952858178, "lat": 47.9972873, "lon": 7.8448063, "tags": {"addr:housenumber": "41", "addr:postcode": "79098", "addr:street": "Eisenbahnstra\u00dfe", "amenity": "cafe", "diet:vegetarian": "yes", "indoor_seating": "yes", "level": "0", "name": "Chloe", "old_name": "Dettlinger", "outdoor_seating": "yes", "source": "local knowledge", "wheelchair": "yes"}}, {"type": "node", "id": 3952858193, "lat": 47.9979194, "lon": 7.8515518, "tags": {"amenity": "cafe", "level": "0", "name": "Caf\u00e9 Phin", "opening_hours": "Mo-Th 08:30-18:00; Fr,Sa 09:30-19:00"}}, {"type": "node", "id": 3952858196, "lat": 47.9956803, "lon": 7.8439821, "tags": {"addr:postcode": "79098", "amenity": "cafe", "name": "Maxx Lounge", "opening_hours": "Mo-Fr 13:45-23:30; Sa,Su 10:15-23:30", "wheelchair": "yes"}}, {"type": "node", "id": 3979040107, "lat": 47.9979372, "lon": 7.8515024, "tags": {"addr:city": "Freiburg im Breisgau", "addr:housenumber": "14", "addr:postcode": "79098", "addr:street": "Friedrichring", "amenity": "cafe", "cuisine": "bubble_tea", "name": "Boaboa", "source": "survey", "wheelchair": "limited"}}, {"type": "node", "id": 3979040108, "lat": 47.9971445, "lon": 7.8499849, "tags": {"addr:housenumber": "14", "addr:street": "Schiffstra\u00dfe", "amenity": "cafe", "check_date:opening_hours": "2023-05-19", "cuisine": "ice_cream", "diet:halal": "no", "diet:kosher": "no", "diet:vegan": "yes", "diet:vegetarian": "yes", "indoor_seating": "yes", "name": "Homemade Sweets Company", "opening_hours": "Mo-Fr 09:30-18:30; Sa 10:00-18:30", "outdoor_seating": "yes", "source": "survey", "website": "https://www.homemade-sweets.de/", "wheelchair": "no"}}, {"type": "node", "id": 3979040137, "lat": 47.9919168, "lon": 7.8473621, "tags": {"addr:housenumber": "10", "addr:street": "Gartenstra\u00dfe", "amenity": "cafe", "check_date:opening_hours": "2025-07-31", "level": "0", "name": "Kohi Coffee + Goods", "opening_hours": "Mo-Fr 08:00-18:00; Sa 09:00-17:00", "operator": "Sarah Sleifir", "source:opening_hours": "entrance", "wheelchair": "no"}}, {"type": "node", "id": 3979040663, "lat": 47.9973484, "lon": 7.8528834, "tags": {"amenity": "cafe", "indoor_seating": "yes", "level": "0", "name": "Saray Caf\u00e9", "outdoor_seating": "yes", "source": "survey"}}, {"type": "node", "id": 4044207289, "lat": 47.9986897, "lon": 7.7929386, "tags": {"amenity": "cafe", "cuisine": "ice_cream", "name": "Tutti Frutti Eiscaf\u00e9", "name:de": "Tutti Frutti Eiscaf\u00e9", "name:en": "Tutti Frutti Icecream", "toilets:wheelchair": "no", "wheelchair": "yes"}}, {"type": "node", "id": 4046532762, "lat": 47.9999478, "lon": 7.8408608, "tags": {"addr:city": "Freiburg im Breisgau", "addr:country": "DE", "addr:housenumber": "15", "addr:postcode": "79106", "addr:street": "Lehener Stra\u00dfe", "amenity": "cafe", "cafe": "board_game", "check_date:opening_hours": "2024-05-05", "email": "info@freispiel-freiburg.de", "internet_access": "wlan", "internet_access:fee": "no", "internet_access:ssid": "freiburg.freifunk.net", "level": "0", "name": "FreiSpiel", "opening_hours": "Mo-Th 11:00-23:00; Fr-Sa 11:00-24:00; Su off", "operator": "Florian H\u00f6gner", "outdoor_seating": "no", "payment:cash": "yes", "payment:credit_cards": "yes", "payment:debit_cards": "yes", "phone": "+49 761 59516426", "shop": "games", "smoking": "no", "toilets:wheelchair": "no", "website": "https://www.freispiel-freiburg.de/", "wheelchair": "limited"}}, {"type": "node", "id": 4253156582, "lat": 48.0281666, "lon": 7.8592974, "tags": {"amenity": "cafe", "name": "M\u00f6max"}}, {"type": "node", "id": 4377082308, "lat": 48.0120908, "lon": 7.8506891, "tags": {"amenity": "cafe", "contact:facebook": "https://www.facebook.com/Eis-Caf%C3%A8-Venezia-Am-G%C3%BCterbahnhof-1756719367932715/", "cuisine": "ice_cream", "name": "Eis Caf\u00e9 Venezia", "opening_hours": "Mo-Sa 10:00-22:00; Su 11:00-22:00", "outdoor_seating": "yes", "toilets:wheelchair": "yes", "wheelchair": "yes"}}, {"type": "node", "id": 4450210786, "lat": 48.0154562, "lon": 7.8500026, "tags": {"amenity": "cafe", "check_date:opening_hours": "2022-12-15", "highchair": "yes", "internet_access": "wlan", "internet_access:fee": "no", "level": "0", "name": "Die Kaiserin", "opening_hours": "PH,Su 07:30-18:00; Mo-Fr 06:00-18:30; Sa 06:00-18:00", "outdoor_seating": "yes", "shop": "bakery", "toilets:wheelchair": "yes", "website": "https://diekaiserin.jetzt/", "wheelchair": "yes"}}, {"type": "node", "id": 4710565622, "lat": 48.0057362, "lon": 7.8550317, "tags": {"amenity": "cafe", "check_date:opening_hours": "2021-06-05", "contact:email": "info@stoffanstalt.de", "contact:phone": "+49 761 61257628", "contact:website": "http://www.stoffanstalt.de/", "cuisine": "coffee_shop", "level": "0", "name": "Stoffanstalt", "opening_hours": "Mo-Fr 09:00-13:00, 15:00-18:00; Sa 10:00-16:00; Su off", "opening_hours:url": "http://www.stoffanstalt.de/", "operator": "Sibylle Sch\u00e4fer", "outdoor_seating": "yes", "payment:american_express": "yes", "payment:apple_pay": "yes", "payment:cash": "yes", "payment:diners_club": "yes", "payment:discover_card": "yes", "payment:google_pay": "yes", "payment:mastercard": "yes", "payment:unionpay": "yes", "payment:visa": "yes", "source:opening_hours": "website; entrance"}}, {"type": "node", "id": 4843698852, "lat": 47.9919809, "lon": 7.852378, "tags": {"addr:city": "Freiburg im Breisgau", "addr:housenumber": "12", "addr:postcode": "79098", "addr:street": "Wallstra\u00dfe", "amenity": "cafe", "diet:vegetarian": "yes", "name": "Blumen Kunst Caf\u00e9 und Wein", "opening_hours": "Tu,Th,Fr 09:00-13:00; Sa 09:00-13:00", "toilets:wheelchair": "no", "wheelchair": "limited", "wheelchair:description": "Au\u00dfenbereich bedingt rollstuhlgerecht; Innenbereich nicht rollstuhlgerecht; Verkauf im Innenbereich"}}, {"type": "node", "id": 4972305052, "lat": 48.0132444, "lon": 7.8483048, "tags": {"amenity": "cafe", "check_date": "2025-03-23", "description": "Laut Aushang: Vor\u00fcbergehend geschlossen", "diet:vegetarian": "yes", "indoor_seating": "yes", "name": "B\u00e4ckerei Heitzmann", "opening_hours": "off", "outdoor_seating": "yes", "shop": "bakery", "website": "https://www.baeckerei-heitzmann.de/location/79106-freiburg-ellen-gottlieb-str-2/", "wheelchair": "yes"}}, {"type": "node", "id": 4985445771, "lat": 48.025261, "lon": 7.8042446}, {"type": "node", "id": 4985445774, "lat": 48.0254236, "lon": 7.8041851}, {"type": "node", "id": 4985445775, "lat": 48.0253282, "lon": 7.8041906}, {"type": "node", "id": 4985445776, "lat": 48.0253295, "lon": 7.8042405}, {"type": "node", "id": 4985445777, "lat": 48.0252245, "lon": 7.8042464}, {"type": "node", "id": 4985445778, "lat": 48.0252227, "lon": 7.804155}, {"type": "node", "id": 4985445779, "lat": 48.0252811, "lon": 7.8041516}, {"type": "node", "id": 4985445780, "lat": 48.0252788, "lon": 7.8040627}, {"type": "node", "id": 4985445781, "lat": 48.0253558, "lon": 7.8040583}, {"type": "node", "id": 4985445782, "lat": 48.0253579, "lon": 7.8041398}, {"type": "node", "id": 4985445783, "lat": 48.0254224, "lon": 7.804136}, {"type": "node", "id": 4987792485, "lat": 47.9983927, "lon": 7.8517134, "tags": {"addr:city": "Freiburg im Breisgau", "addr:housenumber": "11", "addr:postcode": "79098", "addr:street": "Friedrichring", "amenity": "cafe", "name": "Cafe Contrast", "opening_hours": "Tu-Sa 17:00-22:00", "wheelchair": "yes", "wheelchair:description": "Schwenkt\u00fcr"}}, {"type": "node", "id": 5043884870, "lat": 47.9970642, "lon": 7.8478374, "tags": {"addr:city": "Freiburg im Breisgau", "addr:country": "DE", "addr:postcode": "79098", "addr:street": "Rotteckring", "amenity": "cafe", "email": "info@colombi.de", "indoor_seating": "yes", "name": "Caf\u00e9 und Bistro Graf Anton", "outdoor_seating": "yes", "phone": "+49 (0)761-21060, +49 (0)761-31410"}}, {"type": "node", "id": 5126206472, "lat": 47.9935972, "lon": 7.8536533, "tags": {"addr:city": "Freiburg im Breisgau", "addr:housenumber": "6", "addr:postcode": "79098", "addr:street": "Oberlinden", "amenity": "cafe", "cuisine": "ice_cream", "email": "info@eiscafe-quovadis.de", "indoor_seating": "yes", "level": "0", "name": "Eiscaf\u00e9 Quo Vadis", "outdoor_seating": "no", "website": "https://www.eiscafe-quovadis.de/", "wheelchair": "limited"}}, {"type": "node", "id": 5139657434, "lat": 47.9980716, "lon": 7.8424249, "tags": {"amenity": "cafe", "indoor_seating": "yes", "level": "0", "name": "Caf\u00e9 Bar coucou", "outdoor_seating": "yes", "takeaway": "yes", "wheelchair": "yes"}}, {"type": "node", "id": 5141611422, "lat": 47.985964, "lon": 7.8478032, "tags": {"amenity": "cafe", "check_date:opening_hours": "2023-06-07", "cuisine": "coffee_shop;cake;tea", "indoor_seating": "yes", "name": "artjamming", "opening_hours": "Mo-Fr 08:30-19:00; Sa 10:00-19:00; Su,PH 13:00-19:00", "outdoor_seating": "yes", "website": "https://www.artjamming.de/", "wheelchair": "no"}}, {"type": "node", "id": 5145018702, "lat": 47.9938726, "lon": 7.8515611, "tags": {"amenity": "cafe", "name": "Espiritu Caffe"}}, {"type": "node", "id": 5604877963, "lat": 47.985627, "lon": 7.8575713, "tags": {"amenity": "cafe", "name": "Dreik\u00f6nigs-Caf\u00e9", "opening_hours": "Tu-Su 08:00-17:00", "opening_hours:signed": "no"}}, {"type": "node", "id": 5729662636, "lat": 47.9927047, "lon": 7.8329014, "tags": {"amenity": "cafe", "check_date:opening_hours": "2022-04-15", "diet:vegan": "no", "diet:vegetarian": "yes", "indoor_seating": "yes", "name": "Mohrentopf", "opening_hours": "We-Sa 12:00-18:00; Su,PH 11:00-17:00", "outdoor_seating": "yes", "toilets:wheelchair": "no", "website": "https://www.mohrentopf.com/", "wheelchair": "yes"}}, {"type": "node", "id": 5794428754, "lat": 47.9883923, "lon": 7.8475381, "tags": {"addr:city": "Freiburg im Breisgau", "addr:housenumber": "2", "addr:postcode": "79100", "addr:street": "Basler Stra\u00dfe", "amenity": "cafe", "check_date": "2023-11-17", "cuisine": "ice_cream", "indoor_seating": "yes", "name": "Eiscaf\u00e9 Castaldi", "opening_hours": "Mo-Fr 09:00-18:00; Sa, Su 10:00-18:00", "outdoor_seating": "yes", "website": "http://www.eiscafe-castaldi.de/"}}, {"type": "node", "id": 5887051385, "lat": 47.9938937, "lon": 7.8527505, "tags": {"addr:city": "Freiburg im Breisgau", "addr:postcode": "79098", "addr:street": "Augustinerplatz", "amenity": "cafe", "name": "Caf\u00e9 im Augustinermuseum", "opening_hours": "Tu-Th,Sa,Su 10:00-17:00; Fr 10:00-19:00", "phone": "+49 761 2012501", "toilets:wheelchair": "yes", "website": "https://www.freiburg.de/pb/,Lde/237748.html", "wheelchair": "no"}}, {"type": "node", "id": 5961662316, "lat": 47.9940395, "lon": 7.8427393, "tags": {"amenity": "cafe", "check_date:opening_hours": "2024-07-04", "contact:email": "mail@castanea-cafe.de", "contact:facebook": "https://www.facebook.com/Castanea-Caf%C3%A9-146841556148389/", "contact:phone": "+49 761 38842534", "contact:website": "https://castanea-cafe.de/", "cuisine": "breakfast;bagel;cafe", "diet:vegetarian": "yes", "name": "Castanea Caf\u00e9", "opening_hours": "Tu-Su 09:00-18:00", "source": "survey;http://fudder.de/in-der-belfortstrasse-hat-das-castanea-caf-im-ehemaligen-caf-kleine-auszeit-eroeffnet--154111564.html;website", "source:opening_hours": "website", "wheelchair": "no", "wheelchair:description:en": "several steps at entrance"}}, {"type": "node", "id": 6088735782, "lat": 47.9852021, "lon": 7.8361595, "tags": {"addr:housenumber": "8", "addr:street": "Merzhauser Stra\u00dfe", "amenity": "cafe", "cuisine": "ice_cream", "name": "Herzlein"}}, {"type": "node", "id": 6120763725, "lat": 48.0192155, "lon": 7.8572706, "tags": {"amenity": "cafe", "brand": "Kaisers Gute Backstube", "brand:wikidata": "Q15116031", "brand:wikipedia": "de:Kaisers Gute Backstube", "check_date": "2024-03-25", "diet:vegan": "yes", "diet:vegetarian": "yes", "internet_access": "yes", "internet_access:fee": "no", "name": "Kaisers Gute Backstube", "opening_hours": "Mo-Sa 06:30-18:30, Su 08:00-18:00", "outdoor_seating": "yes", "shop": "bakery", "wheelchair": "yes"}}, {"type": "node", "id": 6472853716, "lat": 48.0112074, "lon": 7.8559414, "tags": {"amenity": "cafe", "diet:vegan": "yes", "diet:vegetarian": "yes", "name": "5 Senses", "opening_hours": "Mo-Fr 08:00-18:00, Sa 09:00-18:00, Su 10:00-18:00", "phone": "+49 761 55759100", "toilets:wheelchair": "yes", "website": "https://www.5senses.coffee/", "wheelchair": "yes"}}, {"type": "node", "id": 6515189747, "lat": 47.9942305, "lon": 7.8109262, "tags": {"amenity": "cafe", "name": "la palma"}}, {"type": "node", "id": 6576869422, "lat": 47.9812802, "lon": 7.7954261, "tags": {"addr:city": "Freiburg im Breisgau", "addr:country": "DE", "addr:housenumber": "77", "addr:postcode": "79111", "addr:street": "Basler Landstra\u00dfe", "addr:suburb": "St. Georgen", "amenity": "cafe", "check_date": "2025-04-11", "cuisine": "ice_cream", "name": "La Gondola", "outdoor_seating": "yes"}}, {"type": "node", "id": 6960568789, "lat": 47.9937515, "lon": 7.8436379, "tags": {"amenity": "cafe", "check_date": "2023-10-15", "diet:vegan": "yes", "diet:vegetarian": "yes", "level": "0", "name": "Tischlein deck dich", "opening_hours": "Mo-Su 08:00-18:30; Fr 08:00-14:00; Sa 09:00-13:00", "payment:credit_cards": "no", "payment:debit_cards": "no", "phone": "+49 761 37441", "shop": "deli", "smoking": "outside"}}, {"type": "node", "id": 7047993558, "lat": 48.0069348, "lon": 7.8343771, "tags": {"alt_name": "Cafeteria in der Killianstra\u00dfe", "amenity": "cafe", "contact:website": "https://www.uniklinik-freiburg.de/gastronomie/fuer-besucher.html", "diet:vegetarian": "yes", "name": "Cafeteria im Casino", "opening_hours": "Mo-Fr 07:00-17:00"}}, {"type": "node", "id": 7462963403, "lat": 48.0072432, "lon": 7.7163935, "tags": {"addr:city": "Freiburg im Breisgau", "addr:country": "DE", "addr:housenumber": "2", "addr:postcode": "79112", "addr:street": "Wippertskirch", "addr:suburb": "Opfingen", "amenity": "cafe", "name": "hofcaf\u00e9 walter", "opening_hours": "2020 Mar 11-Jun 28 We,Th 14:00-20:00; 2020 Mar 11-Jun 28 Fr 09:00-20:00; 2020 Mar 11-Jun 28 Sa,Su,PH 11:30-19:00; 2020 Jun 01 off", "source": "Bing Aerial", "takeaway": "yes", "wheelchair": "yes"}}, {"type": "node", "id": 7713978785, "lat": 47.9850198, "lon": 7.8575906, "tags": {"amenity": "cafe", "diet:vegan": "yes", "diet:vegetarian": "yes", "indoor_seating": "no", "name": "Kaffee-Kiste", "opening_hours": "Mo-Su 10:00-18:00", "outdoor_seating": "yes", "payment:credit_cards": "yes", "payment:debit_cards": "yes", "smoking": "yes", "wheelchair": "yes"}}, {"type": "node", "id": 7912994385, "lat": 48.0286251, "lon": 7.8054588, "tags": {"amenity": "cafe", "check_date": "2024-02-29", "name": "Bar & Minigolf Funstrand Moosweiher", "website": "https://www.fun-strand.de/fun-strand-am-moosweiher"}}, {"type": "node", "id": 7991493740, "lat": 47.9934823, "lon": 7.8513097, "tags": {"addr:housenumber": "11", "addr:street": "Gerberau", "amenity": "cafe", "diet:vegan": "yes", "diet:vegetarian": "yes", "indoor_seating": "yes", "name": "Caf\u00e9 August", "opening_hours": "Mo-Su 10:00-18:00", "outdoor_seating": "yes", "payment:credit_cards": "yes", "payment:debit_cards": "yes", "smoking": "outside"}}, {"type": "node", "id": 8093104182, "lat": 47.9855109, "lon": 7.8461596, "tags": {"addr:city": "Freiburg im Breisgau", "addr:housenumber": "48", "addr:postcode": "79100", "addr:street": "Kirchstra\u00dfe", "amenity": "cafe", "cuisine": "ice_cream", "diet:vegan": "yes", "email": "hallo@scheinpflugeis.com", "indoor_seating": "yes", "name": "Scheinpflug", "opening_hours": "Mo-Su, PH 12:00-18:00", "outdoor_seating": "yes", "phone": "+49 7665 9392480", "website": "https://scheinpflugeis.com/"}}, {"type": "node", "id": 8889650791, "lat": 48.0010534, "lon": 7.8640062}, {"type": "node", "id": 8889650793, "lat": 48.0010762, "lon": 7.8642654}, {"type": "node", "id": 8889650794, "lat": 48.0010655, "lon": 7.8642935}, {"type": "node", "id": 8889650795, "lat": 48.0010861, "lon": 7.8642747}, {"type": "node", "id": 8889650796, "lat": 48.0010753, "lon": 7.8643024}, {"type": "node", "id": 9113463387, "lat": 47.9887518, "lon": 7.8363108, "tags": {"addr:city": "Freiburg im Breisgau", "addr:housenumber": "13", "addr:postcode": "79100", "addr:street": "Heinrich-von-Stephan-Stra\u00dfe", "air_conditioning": "yes", "amenity": "cafe", "bar": "no", "cuisine": "sandwich", "delivery": "no", "diet:vegan": "yes", "diet:vegetarian": "yes", "name": "Caf\u00e9 Kurbel", "outdoor_seating": "no", "payment:cash": "no", "payment:debit_cards": "yes", "takeaway": "yes"}}, {"type": "node", "id": 9130055062, "lat": 47.9976127, "lon": 7.8429699, "tags": {"addr:postcode": "79098", "amenity": "cafe", "level": "0", "name": "Fili", "opening_hours": "Mo-Fr 07:00-17:00; Sa 11:30-17:30"}}, {"type": "node", "id": 9163366119, "lat": 47.9767249, "lon": 7.8254933, "tags": {"addr:city": "Freiburg im Breisgau", "addr:housenumber": "1", "addr:postcode": "79100", "addr:street": "Marie-Curie-Stra\u00dfe", "amenity": "cafe", "contact:website": "https://www.wilhelm-moltke.com/", "cuisine": "coffee_shop", "diet:gluten_free": "yes", "diet:vegan": "yes", "diet:vegetarian": "yes", "name": "cafe bedda", "opening_hours": "Mo-Fr 09:00-17:30; Sa 10:00-17:30", "outdoor_seating": "yes", "self_service": "yes", "start_date": "2021-05-30"}}, {"type": "node", "id": 9237465837, "lat": 47.9919551, "lon": 7.85142, "tags": {"addr:city": "Freiburg im Breisgau", "addr:housenumber": "8", "addr:postcode": "79098", "addr:street": "Wallstra\u00dfe", "amenity": "cafe", "indoor_seating": "no", "name": "Gartencaf\u00e9 Tibet Kailash", "outdoor_seating": "yes", "phone": "+49 761 66814", "website": "https://www.tibet-kailash-haus.de"}}, {"type": "node", "id": 9386734688, "lat": 47.9953367, "lon": 7.8541824, "tags": {"amenity": "cafe", "check_date:opening_hours": "2024-04-06", "contact:email": "cafe-inklusiv@caritas-freiburg.de", "contact:phone": "+49 761 79034630", "contact:website": "https://www.caritas-freiburg.de/arbeit-und-berufliche-kompetenzen/cafe-inklusiv-im-muensterforum/", "description": "Mittagstisch, davor + danach Caf\u00e9-Betrieb", "diet:vegan": "no", "diet:vegetarian": "yes", "indoor_seating": "yes", "level": "0", "name": "Caf\u00e9 Inklusiv", "note": "Pressemitteilung \u00fcber die Er\u00f6ffnung: https://www.caritas-freiburg.de/9339/neueroeffnung-des-cafe-inklusiv-im-muensterforum/", "opening_hours": "We-Sa 11:00-18:00", "opening_hours:kitchen": "We-Sa 12:00-14:30", "outdoor_seating": "yes", "smoking": "outside", "start_date": "2021-09-01", "wheelchair": "yes"}}, {"type": "node", "id": 9423739337, "lat": 47.9879048, "lon": 7.8613952, "tags": {"amenity": "cafe", "diet:vegetarian": "yes", "name": "Caf\u00e9 Goldener Affe", "opening_hours": "Mo-Su 10:00-18:00", "phone": "+4917639533641", "website": "https://instagram.com/cafe_goldener_affe"}}, {"type": "node", "id": 9444830584, "lat": 48.0129351, "lon": 7.8518474, "tags": {"addr:city": "Freiburg im Breisgau", "addr:country": "DE", "addr:housenumber": "28", "addr:postcode": "79106", "addr:street": "Waldkircher Stra\u00dfe", "amenity": "cafe", "name": "Vesuvio", "opening_hours": "Mo-Th, Su 09:00-20:00; Fr 09:00-21:00; Sa 14:00-2"}}, {"type": "node", "id": 9665653242, "lat": 47.9660257, "lon": 7.8557856, "tags": {"addr:city": "Freiburg im Breisgau", "addr:housenumber": "29", "addr:postcode": "79100", "addr:street": "Schauinslandstra\u00dfe", "amenity": "cafe", "cuisine": "coffee_shop", "name": "G\u00fcnter Coffee Roasters", "opening_hours": "Fr 15-18:00", "website": "https://guentercoffee.com"}}, {"type": "node", "id": 9889482437, "lat": 47.9893333, "lon": 7.8519808, "tags": {"addr:city": "Freiburg im Breisgau", "addr:housenumber": "2", "addr:postcode": "79102", "addr:street": "Uhlandstra\u00dfe", "amenity": "cafe", "capacity:seats": "30", "internet_access": "wlan", "name": "zuka solicaf\u00e9", "opening_hours": "Tu-We 11:00-17:00; Th-Fr 11:00-20:00", "operator": "zusammen leben e.V.", "outdoor_seating": "yes", "website": "https://zlev.de/essen-trinken#zusammen-kaffee"}}, {"type": "node", "id": 10210380392, "lat": 48.0036124, "lon": 7.8549257, "tags": {"addr:city": "Freiburg im Breisgau", "addr:housenumber": "101A", "addr:postcode": "79104", "addr:street": "Habsburgerstra\u00dfe", "amenity": "cafe", "check_date:opening_hours": "2024-10-27", "contact:facebook": "https://www.facebook.com/profile.php?id=100077524353293", "contact:instagram": "https://www.instagram.com/milascafe101a/", "contact:phone": "+49 761 29092297\u00a0", "cuisine": "bowls;ramen", "indoor_seating": "yes", "name": "Milas Caf\u00e9 & Ramen", "old_name": "Lebefrau", "opening_hours": "Su 10:00-22:00; Mo-Sa 09:00-22:00", "operator": "Anna Gretzmeier", "outdoor_seating": "yes", "website": "https://www.milascafe.de/"}}, {"type": "node", "id": 10291637795, "lat": 47.9941056, "lon": 7.8514108, "tags": {"addr:city": "Freiburg im Breisgau", "addr:housenumber": "23", "addr:postcode": "79098", "addr:street": "Gr\u00fcnw\u00e4lderstra\u00dfe", "amenity": "cafe", "changing_table": "no", "check_date": "2023-06-20", "cuisine": "sandwich", "diet:vegan": "only", "diet:vegetarian": "yes", "indoor_seating": "no", "internet_access": "wlan", "internet_access:fee": "no", "name": "Caf\u00e9 Hinterzimmer", "opening_hours": "Mo-Sa 12:00-18:00", "outdoor_seating": "yes", "phone": "+49 151 41280893", "smoking": "no", "source": "local knowledge", "toilets": "yes", "toilets:wheelchair": "no", "website": "https://cafe-hinterzimmer.de", "wheelchair": "limited"}}, {"type": "node", "id": 10311327291, "lat": 47.996533, "lon": 7.8497713, "tags": {"amenity": "cafe", "name": "China Jiangnan tea house", "opening_hours": "Mo-Fr 11:30-18:30; Sa 11:30-19:00"}}, {"type": "node", "id": 10731003271, "lat": 47.9933465, "lon": 7.8404291, "tags": {"amenity": "cafe", "name": "Foodsharing Caf\u00e9", "opening_hours": "Th-Fr 14:00-20:00; PH closed", "operator": "Foodsharing-Caf\u00e9 Freiburg e.V.", "website": "https://foodsharing-cafe-freiburg.de/", "wheelchair": "limited"}}, {"type": "node", "id": 10737300172, "lat": 48.0067829, "lon": 7.8635735, "tags": {"addr:city": "Freiburg im Breisgau", "addr:housenumber": "66", "addr:postcode": "79104", "addr:street": "Hauptstra\u00dfe", "amenity": "cafe", "check_date": "2023-03-14", "name": "Rei\u00df Beck", "note": "Neuer\u00f6ffnung: 14. M\u00e4rz 2023", "operator": "Reiss Beck GmbH & Co KG", "outdoor_seating": "yes", "phone": "+49 7661 906063", "shop": "bakery", "source": "local knowledge", "start_date": "2023", "website": "https://instagram.com/reiss_beck", "wheelchair": "no"}}, {"type": "node", "id": 10750149103, "lat": 47.9899309, "lon": 7.8444059, "tags": {"addr:city": "Freiburg im Breisgau", "addr:housenumber": "1", "addr:postcode": "79100", "addr:street": "Kronenstra\u00dfe", "amenity": "cafe", "check_date": "2023-11-17", "cuisine": "cake", "diet:vegan": "yes", "diet:vegetarian": "yes", "indoor_seating": "yes", "level": "0", "name": "Caf\u00e9 Alma", "opening_hours": "Mo, Tu, Th, Fr 08:00-18:00; Sa, Su 09:00-18:00", "outdoor_seating": "yes", "wheelchair": "yes"}}, {"type": "node", "id": 10918090450, "lat": 48.0029981, "lon": 7.8409542, "tags": {"addr:city": "Freiburg im Breisgau", "addr:housenumber": "2", "addr:postcode": "79106", "addr:street": "Friedrich-Ebert-Platz", "amenity": "cafe", "check_date:opening_hours": "2025-04-30", "contact:facebook": "https://www.facebook.com/contrast.freiburg/", "cuisine": "sandwich", "diet:vegan": "yes", "diet:vegetarian": "yes", "level": "0", "name": "Contrast", "opening_hours": "Mo-Fr 06:30-16:00; Su 07:30-12:30", "outdoor_seating": "yes", "payment:cards": "yes", "payment:cash": "yes", "shop": "bakery", "source:opening_hours": "entrance", "wheelchair": "yes"}}, {"type": "node", "id": 10981531382, "lat": 47.9893937, "lon": 7.8482812, "tags": {"addr:city": "Freiburg im Breisgau", "addr:housenumber": "7", "addr:postcode": "79102", "addr:street": "G\u00fcnterstalstra\u00dfe", "amenity": "cafe", "check_date": "2024-06-30", "indoor_seating": "yes", "lunch": "menu", "name": "Barry's", "opening_hours": "Mo-Fr 09:00-19:00; Sa-Su 10:00-19:00", "phone": "+4976151468900", "website": "https://barryscafe.de/"}}, {"type": "node", "id": 11074083360, "lat": 47.995133, "lon": 7.8484358, "tags": {"amenity": "cafe", "contact:facebook": "https://www.facebook.com/Prussak.Freiburg/", "cuisine": "bubble_tea", "name": "Yoyo Bubble Tea", "opening_hours": "Mo-Sa 09:30-20:00", "outdoor_seating": "no"}}, {"type": "node", "id": 11080724039, "lat": 47.9939539, "lon": 7.8399461, "tags": {"addr:city": "Freiburg im Breisgau", "addr:housenumber": "52", "addr:postcode": "79098", "addr:street": "Belfortstra\u00dfe", "amenity": "cafe", "bar": "yes", "name": "La Cornerie", "opening_hours": "We,Su 11:00-20:00; Th-Sa 11:00-22:30; Mo,Tu off", "outdoor_seating": "yes"}}, {"type": "node", "id": 11356951179, "lat": 48.0074478, "lon": 7.8285903, "tags": {"amenity": "cafe", "contact:website": "https://www.uniklinik-freiburg.de/gastronomie/fuer-besucher.html", "diet:vegetarian": "yes", "name": "Verwaltungsgeb\u00e4ude Uniklinik Freiburg", "opening_hours": "Mo-Fr 08:00-13:00; Sa,Su,PH off"}}, {"type": "node", "id": 11392925644, "lat": 48.03044, "lon": 7.8393821, "tags": {"amenity": "cafe", "check_date:opening_hours": "2023-11-23", "contact:website": "https://www.uniklinik-freiburg.de/gastronomie/fuer-besucher.html", "level": "1", "name": "Cafeteria Logistikzentrum", "opening_hours": "Mo-Fr 08:00-14:00; Sa,Su,PH off", "operator": "Universit\u00e4tsklinikum Freiburg", "source:opening_hours": "entrance"}}, {"type": "node", "id": 11406246084, "lat": 47.9971365, "lon": 7.8494488, "tags": {"addr:housenumber": "8", "addr:postcode": "79104", "addr:street": "Merianstra\u00dfe", "amenity": "cafe", "check_date": "2024-11-18", "cuisine": "coffee_shop", "name": "G\u00fcnter Coffee Store", "opening_hours": "Tu-Sa 10:00-17:00", "outdoor_seating": "yes", "website": "https://cafemarcel.de/"}}, {"type": "node", "id": 11886664983, "lat": 47.9864835, "lon": 7.9052913, "tags": {"amenity": "cafe", "cuisine": "cake;snack", "diet:vegan": "yes", "diet:vegetarian": "yes", "email": "info@cafe-lilou.de", "indoor_seating": "yes", "name": "Caf\u00e9 Lilou", "opening_hours": "Tu-Su 09:00-18:00", "outdoor_seating": "yes", "website": "https://www.cafe-lilou.de/", "wheelchair": "yes"}}, {"type": "node", "id": 12189883391, "lat": 48.0054532, "lon": 7.8364079, "tags": {"amenity": "cafe", "check_date:opening_hours": "2024-09-21", "delivery": "no", "indoor_seating": "bar_table", "level": "0", "name": "Kiosk", "opening_hours": "Mo-Fr 08:00-16:00; Sa 10:00-15:00; Su,PH off", "operator": "Universit\u00e4tsklinikum Freiburg", "outdoor_seating": "no", "source:opening_hours": "entrance", "start_date": "2024-09-18", "takeaway": "yes", "wheelchair": "yes"}}, {"type": "node", "id": 12241167388, "lat": 47.9934899, "lon": 7.8508236, "tags": {"addr:city": "Freiburg im Breisgau", "addr:housenumber": "9", "addr:postcode": "79098", "addr:street": "Gerberau", "amenity": "cafe", "name": "DOC Cafe", "opening_hours": "Mo-Th 10:00-17:00; Fr-Sa 10:00-19:00", "outdoor_seating": "yes"}}, {"type": "node", "id": 12285387628, "lat": 48.0233888, "lon": 7.8088747, "tags": {"addr:city": "Freiburg im Breisgau", "addr:housenumber": "92", "addr:postcode": "79110", "addr:street": "Auwaldstra\u00dfe", "amenity": "cafe", "check_date": "2024-10-24", "level": "0", "name": "LA EISCAF\u00c9", "opening_date": "2025"}}, {"type": "node", "id": 12324599230, "lat": 47.9790605, "lon": 7.8029677, "tags": {"entrance": "yes"}}, {"type": "node", "id": 12402879514, "lat": 48.0024951, "lon": 7.8489977, "tags": {"addr:city": "Freiburg im Breisgau", "addr:housenumber": "28", "addr:postcode": "79104", "addr:street": "Stefan-Meier-Stra\u00dfe", "amenity": "cafe", "cuisine": "sandwich;ice_cream;breakfast;cake", "diet:dairy_free": "yes", "diet:vegan": "yes", "diet:vegetarian": "yes", "indoor_seating": "yes", "internet_access": "wlan", "level": "0", "name": "Institutscaf\u00e9", "opening_hours": "Mo-Fr 08:00-17:00", "operator": "Studierendenwerk Freiburg", "operator:short": "SWFR", "operator:wikidata": "Q19963239", "outdoor_seating": "yes", "payment:cash": "yes", "payment:credit_cards": "no", "payment:debit_cards": "yes", "smoking": "no", "website": "https://www.swfr.de/essen/mensen-cafes-speiseplaene/freiburg/mensa-institutsviertel", "wheelchair": "yes"}}, {"type": "node", "id": 12487274486, "lat": 47.993996, "lon": 7.8514804, "tags": {"addr:city": "Freiburg im Breisgau", "addr:housenumber": "23", "addr:postcode": "79098", "addr:street": "Gr\u00fcnw\u00e4lderstra\u00dfe", "amenity": "cafe", "name": "Hinterzimmer", "opening_hours": "Mo-Sa 12:00-18:00", "website": "https://www.cafe-hinterzimmer.de/"}}, {"type": "node", "id": 12512647309, "lat": 47.994546, "lon": 7.8111603, "tags": {"amenity": "cafe", "cuisine": "ukrainian;cake;waffle", "name": "Cafe Odessa"}}, {"type": "node", "id": 12582928708, "lat": 47.9928216, "lon": 7.8524143, "tags": {"addr:city": "Freiburg im Breisgau", "addr:housenumber": "10a", "addr:postcode": "79098", "addr:street": "Marienstra\u00dfe", "amenity": "cafe", "contact:email": "kontakt@la-terrazza-freiburg.de", "contact:phone": "+49 17680610211", "contact:website": "https://www.la-terrazza-freiburg.info", "cuisine": "italian", "name": "La Terrazza ad Arte", "opening_hours": "Tu,We,Su 10:00-17:00, Th,Fr,Sa 10:00-19:00", "toilets": "yes"}}, {"type": "node", "id": 12643750788, "lat": 48.0062266, "lon": 7.827979, "tags": {"addr:city": "Freiburg im Breisgau", "addr:housenumber": "7", "addr:postcode": "79110", "addr:street": "Dunantstra\u00dfe", "amenity": "cafe", "check_date": "2025-03-06", "check_date:opening_hours": "2025-03-06", "indoor_seating": "yes", "level": "0", "name": "GL-Block Caf\u00e9", "opening_hours": "Mo-Sa 08:00-22:00; Su,PH 09:00-18:00", "outdoor_seating": "yes"}}, {"type": "node", "id": 12690766714, "lat": 47.9925163, "lon": 7.8545774, "tags": {"addr:city": "Freiburg im Breisgau", "addr:housenumber": "1", "addr:postcode": "79098", "addr:street": "Schlossbergring", "amenity": "cafe", "contact:instagram": "the_naked_ape", "cuisine": "sandwich", "name": "The Naked Ape", "opening_hours": "2025 Mar 12-2025 Jul 31 Tu-Th 12:00-22:00; 2025 Mar 12-2025 Jul 31 Fr, Sa 12:00-02:00; 2025 Mar 12-2025 Jul 31 Su 14:00-20:00", "outdoor_seating": "yes"}}, {"type": "node", "id": 12710102302, "lat": 47.9879534, "lon": 7.8611522, "tags": {"addr:housenumber": "8", "addr:street": "N\u00e4geleseestra\u00dfe", "amenity": "cafe", "contact:instagram": "simonundpaulfreiburg", "name": "Simon & Paul"}}, {"type": "node", "id": 12717114486, "lat": 48.0010142, "lon": 7.8546009, "tags": {"amenity": "cafe", "name": "Cafeteria Zum M\u00fcnstermarkt", "opening_hours": "We-Su 11:30-17:30; Mo,Tu off", "payment:cash": "only", "wheelchair": "yes"}}, {"type": "node", "id": 12989242801, "lat": 47.9810674, "lon": 7.8943423, "tags": {"addr:city": "Freibrug", "addr:housenumber": "29", "addr:postcode": "79117", "addr:street": "Kunzenweg", "amenity": "cafe", "name": "Caf\u00e9 Cube", "opening_hours": "8:00-15:00", "website": "https://www.swfr.de/essen/mensen-cafes-speiseplaene/freiburg/cafe-cube"}}, {"type": "way", "id": 98713857, "nodes": [2975242742, 1142015567, 1142015557, 1142015541, 2975242735, 2975242738, 2975242748, 2975242746, 2975242751, 2975242750, 2975242745, 2975242743, 2975242749, 2975242747, 1142015537, 2975242742], "tags": {"addr:city": "Freiburg im Breisgau", "addr:housenumber": "77", "addr:postcode": "79117", "addr:street": "Waldseestra\u00dfe", "amenity": "cafe", "building": "yes", "check_date": "2025-07-17", "description": "Caf\u00e9 mit Kaffee, Kuchen, Flammuchen, Wein, Bier. Gartenterrasse. Zugleich Rezeption des Campingplatzes.", "name": "Busse's WaldCaf\u00e9", "note": "ab 14.4.2015 Cafe, davor Restaurant", "opening_hours": "Mo-Su 08:00-18:00", "phone": "+49 761 74847", "toilets:wheelchair": "yes", "website": "https://www.waldcafe-freiburg.de/", "wheelchair": "yes"}}, {"type": "way", "id": 108601938, "nodes": [1203781115, 248594162, 1203781923, 1203781838, 1245631007, 1245631014, 1245631141, 1245630968, 2949915555, 1203781137, 1203781115], "tags": {"addr:city": "Freiburg im Breisgau", "addr:housenumber": "15/1", "addr:postcode": "79098", "addr:street": "Wilhelmstra\u00dfe", "air_conditioning": "no", "amenity": "cafe", "building": "retail", "check_date:diet:vegetarian": "2021-03-23", "contact:email": "info@josfritzcafe.de", "contact:phone": "+49 761 30019", "contact:website": "http://www.josfritzcafe.de", "diet:vegan": "yes", "diet:vegetarian": "yes", "drink:club-mate": "yes", "name": "Jos-Fritz-Caf\u00e9", "opening_hours": "Mo-Th 10:00-22:00; Fr,Sa 10:00-24:00", "outdoor_seating": "yes", "smoking": "no", "source": "Bing Aerial", "source:outline": "maps4bw (LGL, www.lgl-bw.de)", "toilets:wheelchair": "yes", "wheelchair": "yes"}}, {"type": "way", "id": 108959295, "nodes": [1003035889, 1002983428, 1003035897, 1248821408, 1002041689, 1203781343, 1003035889], "tags": {"addr:city": "Freiburg im Breisgau", "addr:housenumber": "12", "addr:postcode": "79098", "addr:street": "Adlerstra\u00dfe", "amenity": "cafe", "amenity_1": "bar", "building": "yes", "contact:mastodon": "@strandcafe@freiburg.social", "cuisine": "cake;muffin;pretzel", "diet:vegan": "yes", "diet:vegetarian": "only", "internet_access": "yes", "internet_access:fee": "no", "internet_access:ssid": "strandcafe", "name": "Strandcafe", "opening_hours": "We, Fr 10:00-18:00; Th 10:00-20:00; Sa 12:00-16:00; Th, Fr 20:00+", "outdoor_seating": "yes", "source:outline": "maps4bw (LGL, www.lgl-bw.de)", "surface": "paved", "toilets:wheelchair": "yes", "website": "https://strandcafe.fr", "wheelchair": "limited", "wheelchair:description": "ask for key for special wheelchair accessable toilet, slightly wheelchair unfriendly door (heavy) - no steps", "wikipedia": "de:Mietsh\u00e4user Syndikat"}}, {"type": "way", "id": 154601682, "nodes": [1671252231, 2955005925, 2955005923, 2955005922, 2955005919, 2955005916, 2955005913, 2955005902, 2955005909, 2955005912, 8889650796, 8889650794, 8889650793, 8889650795, 2955005920, 2335743798, 2955005903, 2955005899, 2955005905, 2955005906, 1671252200, 8889650791, 1671252227, 1671252288, 1671252230, 1671252210, 1671252231], "tags": {"addr:city": "Freiburg im Breisgau", "addr:housenumber": "19", "addr:postcode": "79104", "addr:street": "Wintererstra\u00dfe", "amenity": "cafe", "building": "yes", "name": "Caritas Tagungshaus"}}, {"type": "way", "id": 174966680, "nodes": [1856054997, 1856054996, 1856054959, 1856054960, 12324599230, 1856054987, 1856054997], "tags": {"addr:city": "Freiburg im Breisgau", "addr:postcode": "79111", "addr:street": "Blumenstra\u00dfe", "amenity": "cafe", "building": "barn", "changing_table:location": "female_toilet;male_toilet;wheelchair_toilet", "cuisine": "ice_cream", "email": "info@stubenareal.de", "name": "Scheunen-Cafe", "opening_hours": "Mo-Su 12:00-18:00", "outdoor_seating": "yes", "phone": "+49 761 15616060", "source:outline": "maps4bw (LGL, www.lgl-bw.de)", "toilets": "yes", "toilets:wheelchair": "yes", "website": "https://www.stubenareal.de"}}, {"type": "way", "id": 191801560, "nodes": [1267448938, 68611930, 2023736208, 2023736210, 2376149437, 2023736222, 2023736215, 1267449275, 2023736202, 1267448938], "tags": {"addr:housenumber": "14", "addr:street": "Vaubanallee", "air_conditioning": "yes", "amenity": "cafe", "check_date:opening_hours": "2024-07-30", "cuisine": "ice_cream", "diet:vegan": "yes", "diet:vegetarian": "yes", "indoor_seating": "yes", "level": "0", "name": "Eiscaf\u00e9 Limette", "opening_hours": "Apr-Sep: Mo-Sa 10:00-21:00; Apr-Sep: Su 10:00-21:00; Oct-Mar: Mo-Fr 10:00-19:00; Oct-Mar: Su 11:00-19:00", "outdoor_seating": "yes", "payment:credit_cards": "yes", "payment:debit_cards": "yes", "smoking": "no", "smoking:outside": "yes", "website": "https://www.limette-freiburg.de/", "wheelchair": "yes"}}, {"type": "way", "id": 242553876, "nodes": [698508991, 2500247174, 2500247190, 1514557203, 698508991], "tags": {"addr:city": "Freiburg im Breisgau", "addr:housenumber": "80a", "addr:postcode": "79117", "addr:street": "Schwarzwaldstra\u00dfe", "air_conditioning": "no", "amenity": "cafe", "building": "kiosk", "changing_table": "no", "contact:email": "info@biosk.eu", "contact:facebook": "https://www.facebook.com/bioskcafe/", "contact:phone": "+49 761 3843804", "contact:twitter": "https://twitter.com/bioskfreiburg", "contact:website": "http://www.biosk.eu/", "cuisine": "coffee_shop", "diet:vegan": "yes", "diet:vegetarian": "yes", "internet_access": "no", "name": "Biosk", "opening_hours": "Mo-Fr 08:30-17:00; Sa,Su,PH 10:00-18:00", "outdoor_seating": "only", "payment:credit_cards": "yes", "payment:debit_cards": "yes", "shop": "kiosk", "smoking": "outside", "source:outline": "maps4bw (LGL, www.lgl-bw.de)", "wheelchair": "yes"}}, {"type": "way", "id": 509296162, "nodes": [4985445774, 4985445783, 4985445782, 4985445781, 4985445780, 4985445779, 4985445778, 4985445777, 4985445771, 4985445776, 4985445775, 4985445774], "tags": {"addr:city": "Freiburg im Breisgau", "addr:country": "DE", "addr:housenumber": "14a", "addr:postcode": "79111", "addr:street": "Humbergweg", "addr:suburb": "Lehen", "amenity": "cafe", "building": "yes", "check_date": "2025-04-05", "check_date:opening_hours": "2025-04-05", "contact:website": "http://www.blumencafe.de/", "name": "Blumencaf\u00e9", "opening_hours": "Mo off; Tu-Su 09:00-18:00", "phone": "+49 761 1560500", "source:geometry": "maps4bw (LGL, www.lgl-bw.de); Mapbox Satellite", "wheelchair": "yes"}}]}